{"type":"FeatureCollection", "features": [
{"type":"Feature","geometry":{"type":"Point","coordinates":[32.4429895,0.044802]},"properties":{"name_en":"Entebbe International Airport"}},
{"type":"Feature","geometry":{"type":"Point","coordinates":[100.3937098,6.9353952]},"properties":{"name_en":"Hat Yai International Airport"}},
{"type":"Feature","geometry":{"type":"Point","coordinates":[-106.922085,32.286877]},"properties":{"name_en":"Las Cruces International Airport"}},
{"type":"Feature","geometry":{"type":"Point","coordinates":[167.7315599,8.7206583]},"properties":{"name_en":null}},
{"type":"Feature","geometry":{"type":"Point","coordinates":[30.2976,54.4397]},"properties":{"name_en":"Bałbasovo"}},
{"type":"Feature","geometry":{"type":"Point","coordinates":[-89.9499611,35.9593049]},"properties":{"name_en":null}},
{"type":"Feature","geometry":{"type":"Point","coordinates":[17.9787716,53.0971349]},"properties":{"name_en":"Airport Bydgoszcz - Szwederowo"}},
{"type":"Feature","geometry":{"type":"Point","coordinates":[5.3756078,51.449768]},"properties":{"name_en":"Eindhoven Airport"}},
{"type":"Feature","geometry":{"type":"Point","coordinates":[6.5753819,53.1207697]},"properties":{"name_en":"Groningen Airport Eelde"}},
{"type":"Feature","geometry":{"type":"Point","coordinates":[12.6379309,55.609274]},"properties":{"name_en":"Copenhagen Airport"}},
{"type":"Feature","geometry":{"type":"Point","coordinates":[14.2891884,40.8839464]},"properties":{"name_en":"Naples International Airport"}},
{"type":"Feature","geometry":{"type":"Point","coordinates":[72.8629148,19.0901549]},"properties":{"name_en":null}},
{"type":"Feature","geometry":{"type":"Point","coordinates":[-76.7840389,17.9359078]},"properties":{"name_en":null}},
{"type":"Feature","geometry":{"type":"Point","coordinates":[28.2454726,-26.1360108]},"properties":{"name_en":"OR Tambo International Airport"}},
{"type":"Feature","geometry":{"type":"Point","coordinates":[13.3705634,55.536215]},"properties":{"name_en":"Malmö Airport"}},
{"type":"Feature","geometry":{"type":"Point","coordinates":[14.1910243,48.2363471]},"properties":{"name_en":"Linz Airport"}},
{"type":"Feature","geometry":{"type":"Point","coordinates":[101.4431043,0.4576792]},"properties":{"name_en":"Sultan Syarif Kasim II International Airport"}},
{"type":"Feature","geometry":{"type":"Point","coordinates":[-87.7507611,41.7855709]},"properties":{"name_en":null}},
{"type":"Feature","geometry":{"type":"Point","coordinates":[10.2961497,44.8265659]},"properties":{"name_en":"Parma Airport"}},
{"type":"Feature","geometry":{"type":"Point","coordinates":[104.8450344,11.5468532]},"properties":{"name_en":"Phnom Penh International Airport"}},
{"type":"Feature","geometry":{"type":"Point","coordinates":[87.4775735,43.9038565]},"properties":{"name_en":"Ürümqi Diwopu International Airport"}},
{"type":"Feature","geometry":{"type":"Point","coordinates":[-4.3355464,11.1565552]},"properties":{"name_en":null}},
{"type":"Feature","geometry":{"type":"Point","coordinates":[13.1007781,38.1769866]},"properties":{"name_en":"Palermo International Airport"}},
{"type":"Feature","geometry":{"type":"Point","coordinates":[6.1498611,43.0962276]},"properties":{"name_en":null}},
{"type":"Feature","geometry":{"type":"Point","coordinates":[9.4822981,42.5546214]},"properties":{"name_en":"International airport of Bastia-Poretta"}},
{"type":"Feature","geometry":{"type":"Point","coordinates":[60.8035843,56.7446893]},"properties":{"name_en":"Koltsovo"}},
{"type":"Feature","geometry":{"type":"Point","coordinates":[8.2909667,40.6327558]},"properties":{"name_en":"Alghero - Fertilia Airport"}},
{"type":"Feature","geometry":{"type":"Point","coordinates":[15.0652965,37.4674234]},"properties":{"name_en":"Catania-Fontanarossa Airport"}},
{"type":"Feature","geometry":{"type":"Point","coordinates":[12.2842194,57.6630308]},"properties":{"name_en":"Gothenburg Landvetter Airport"}},
{"type":"Feature","geometry":{"type":"Point","coordinates":[-21.9437717,64.1293795]},"properties":{"name_en":"Reykjavik Airport"}},
{"type":"Feature","geometry":{"type":"Point","coordinates":[-17.8872501,27.8144726]},"properties":{"name_en":"El Hierro Airport"}},
{"type":"Feature","geometry":{"type":"Point","coordinates":[-59.4914784,13.0773038]},"properties":{"name_en":"Grantley Adams International Airport"}},
{"type":"Feature","geometry":{"type":"Point","coordinates":[-2.1990857,57.2022281]},"properties":{"name_en":null}},
{"type":"Feature","geometry":{"type":"Point","coordinates":[15.7981015,52.1387369]},"properties":{"name_en":"Zielona Góra Airport"}},
{"type":"Feature","geometry":{"type":"Point","coordinates":[59.6421354,36.2338143]},"properties":{"name_en":"Mashhad International Airport"}},
{"type":"Feature","geometry":{"type":"Point","coordinates":[20.5995691,54.8898638]},"properties":{"name_en":"Empress Elizabeth Petrovna Kaliningrad Airport"}},
{"type":"Feature","geometry":{"type":"Point","coordinates":[52.5874971,29.5415366]},"properties":{"name_en":"Shahid Dastgheib International Airport of Shiraz"}},
{"type":"Feature","geometry":{"type":"Point","coordinates":[9.7073543,45.6708817]},"properties":{"name_en":"Bergamo Orio al Serio Airport"}},
{"type":"Feature","geometry":{"type":"Point","coordinates":[12.4903602,37.9122625]},"properties":{"name_en":"Trapani-Birgi Airport"}},
{"type":"Feature","geometry":{"type":"Point","coordinates":[127.4122422,50.4266566]},"properties":{"name_en":"Ignatyevo Airport"}},
{"type":"Feature","geometry":{"type":"Point","coordinates":[5.2122724,59.3434653]},"properties":{"name_en":"Haugesund Airport, Karmøy"}},
{"type":"Feature","geometry":{"type":"Point","coordinates":[24.8409232,59.4143666]},"properties":{"name_en":"«Tallinn» International Airport"}},
{"type":"Feature","geometry":{"type":"Point","coordinates":[-58.1093717,6.8051297]},"properties":{"name_en":null}},
{"type":"Feature","geometry":{"type":"Point","coordinates":[14.6472108,-22.9782842]},"properties":{"name_en":"Walvis Bay Airport"}},
{"type":"Feature","geometry":{"type":"Point","coordinates":[-9.413855,30.3268911]},"properties":{"name_en":"Agadir Al Massira Airport"}},
{"type":"Feature","geometry":{"type":"Point","coordinates":[14.571051,45.216594]},"properties":{"name_en":"Rijeka Airport"}},
{"type":"Feature","geometry":{"type":"Point","coordinates":[19.7859298,50.0781773]},"properties":{"name_en":"John Paul II International Airport Kraków-Balice"}},
{"type":"Feature","geometry":{"type":"Point","coordinates":[10.2315451,36.8519855]},"properties":{"name_en":"Tunis Carthage Airport"}},
{"type":"Feature","geometry":{"type":"Point","coordinates":[-62.5895514,17.2051819]},"properties":{"name_en":null}},
{"type":"Feature","geometry":{"type":"Point","coordinates":[54.3880749,27.6729277]},"properties":{"name_en":"Larestan International Airport"}},
{"type":"Feature","geometry":{"type":"Point","coordinates":[15.4400043,46.9880159]},"properties":{"name_en":"Graz Airport"}},
{"type":"Feature","geometry":{"type":"Point","coordinates":[45.0684318,37.6721026]},"properties":{"name_en":"Urmia International Airport"}},
{"type":"Feature","geometry":{"type":"Point","coordinates":[31.0174033,27.0464066]},"properties":{"name_en":"Assiut International Airport"}},
{"type":"Feature","geometry":{"type":"Point","coordinates":[106.6536406,29.7261014]},"properties":{"name_en":"Chongqing Jiangbei International Airport"}},
{"type":"Feature","geometry":{"type":"Point","coordinates":[0.6924624,51.5701749]},"properties":{"name_en":null}},
{"type":"Feature","geometry":{"type":"Point","coordinates":[117.3541809,39.1273446]},"properties":{"name_en":"Tianjin Binhai International Airport"}},
{"type":"Feature","geometry":{"type":"Point","coordinates":[-77.0895242,20.2878727]},"properties":{"name_en":"Sierra Maestra International Airport"}},
{"type":"Feature","geometry":{"type":"Point","coordinates":[31.1046556,-25.3820207]},"properties":{"name_en":"Kruger Mpumalanga International Airport"}},
{"type":"Feature","geometry":{"type":"Point","coordinates":[-6.2152645,54.6528041]},"properties":{"name_en":null}},
{"type":"Feature","geometry":{"type":"Point","coordinates":[32.5641577,37.9801703]},"properties":{"name_en":null}},
{"type":"Feature","geometry":{"type":"Point","coordinates":[109.4033119,-0.1482153]},"properties":{"name_en":"Supadio Airport"}},
{"type":"Feature","geometry":{"type":"Point","coordinates":[91.5868919,26.1113044]},"properties":{"name_en":null}},
{"type":"Feature","geometry":{"type":"Point","coordinates":[-90.2644643,29.9939027]},"properties":{"name_en":null}},
{"type":"Feature","geometry":{"type":"Point","coordinates":[39.2247456,-6.2269717]},"properties":{"name_en":null}},
{"type":"Feature","geometry":{"type":"Point","coordinates":[6.7683825,51.2870876]},"properties":{"name_en":"Düsseldorf Airport"}},
{"type":"Feature","geometry":{"type":"Point","coordinates":[9.2705744,45.4443229]},"properties":{"name_en":"Linate Airport"}},
{"type":"Feature","geometry":{"type":"Point","coordinates":[-4.0494223,57.5428924]},"properties":{"name_en":"Inverness Airport"}},
{"type":"Feature","geometry":{"type":"Point","coordinates":[129.4513628,42.8788165]},"properties":{"name_en":"Yanji Chaoyangchuan International Airport"}},
{"type":"Feature","geometry":{"type":"Point","coordinates":[138.5308948,-34.9474538]},"properties":{"name_en":null}},
{"type":"Feature","geometry":{"type":"Point","coordinates":[9.9828077,53.6363363]},"properties":{"name_en":"Hamburg Airport"}},
{"type":"Feature","geometry":{"type":"Point","coordinates":[55.9019928,26.7540917]},"properties":{"name_en":"Qeshm International Airport"}},
{"type":"Feature","geometry":{"type":"Point","coordinates":[-73.7858125,40.6429062]},"properties":{"name_en":"John F. Kennedy International Airport"}},
{"type":"Feature","geometry":{"type":"Point","coordinates":[100.6040594,13.9126385]},"properties":{"name_en":"Don Mueang International Airport"}},
{"type":"Feature","geometry":{"type":"Point","coordinates":[-0.1682918,5.6038686]},"properties":{"name_en":"Kotoka International Airport"}},
{"type":"Feature","geometry":{"type":"Point","coordinates":[-1.7321434,48.0688985]},"properties":{"name_en":"Rennes Airport Britanny"}},
{"type":"Feature","geometry":{"type":"Point","coordinates":[20.6506126,52.4516948]},"properties":{"name_en":"Warsaw-Modlin Airport"}},
{"type":"Feature","geometry":{"type":"Point","coordinates":[104.6963928,-2.8965439]},"properties":{"name_en":"Sultan Mahmud Badaruddin II Airport"}},
{"type":"Feature","geometry":{"type":"Point","coordinates":[122.4927041,10.8352564]},"properties":{"name_en":"Iloilo International Airport"}},
{"type":"Feature","geometry":{"type":"Point","coordinates":[28.7432101,50.2696538]},"properties":{"name_en":"Zhytomyr International Airport Sergei Korolev"}},
{"type":"Feature","geometry":{"type":"Point","coordinates":[5.8810515,45.637748]},"properties":{"name_en":"Chambéry Savoie Airport"}},
{"type":"Feature","geometry":{"type":"Point","coordinates":[10.4386499,36.0769713]},"properties":{"name_en":"Enfidha - Hammamet Airport"}},
{"type":"Feature","geometry":{"type":"Point","coordinates":[103.9950913,1.3510909]},"properties":{"name_en":"Singapore Changi Airport"}},
{"type":"Feature","geometry":{"type":"Point","coordinates":[90.9077319,29.2941404]},"properties":{"name_en":"Lhasa Gonggar Airport"}},
{"type":"Feature","geometry":{"type":"Point","coordinates":[-75.4261416,6.1663896]},"properties":{"name_en":"José María Córdova International Airport"}},
{"type":"Feature","geometry":{"type":"Point","coordinates":[-74.1469994,4.7015958]},"properties":{"name_en":"El Dorado International Airport"}},
{"type":"Feature","geometry":{"type":"Point","coordinates":[47.4779507,-18.7961399]},"properties":{"name_en":"Ivato International Airport"}},
{"type":"Feature","geometry":{"type":"Point","coordinates":[115.9683687,-31.9399812]},"properties":{"name_en":null}},
{"type":"Feature","geometry":{"type":"Point","coordinates":[32.9346015,-2.4456417]},"properties":{"name_en":null}},
{"type":"Feature","geometry":{"type":"Point","coordinates":[10.9577751,50.9792075]},"properties":{"name_en":"Erfurt-Weimar Airport"}},
{"type":"Feature","geometry":{"type":"Point","coordinates":[-1.1967158,46.177167]},"properties":{"name_en":null}},
{"type":"Feature","geometry":{"type":"Point","coordinates":[-7.9705828,37.0175057]},"properties":{"name_en":"Faro Airport"}},
{"type":"Feature","geometry":{"type":"Point","coordinates":[118.2564637,29.733299]},"properties":{"name_en":"Huangshan Tunxi International Airport"}},
{"type":"Feature","geometry":{"type":"Point","coordinates":[133.9036444,-23.8081596]},"properties":{"name_en":"Alice Springs Airport"}},
{"type":"Feature","geometry":{"type":"Point","coordinates":[51.0907203,43.8591454]},"properties":{"name_en":"Aktau Airport"}},
{"type":"Feature","geometry":{"type":"Point","coordinates":[35.3106254,47.8693755]},"properties":{"name_en":"Zaporizhzhia International Airport"}},
{"type":"Feature","geometry":{"type":"Point","coordinates":[9.6449973,28.0553983]},"properties":{"name_en":"In-Amenas Zarzaitine Airport"}},
{"type":"Feature","geometry":{"type":"Point","coordinates":[-68.7821698,-11.0373537]},"properties":{"name_en":"Aníbal Arab Fadul International Airport"}},
{"type":"Feature","geometry":{"type":"Point","coordinates":[-84.4296264,33.6378631]},"properties":{"name_en":"Hartsfield–Jackson Atlanta International Airport"}},
{"type":"Feature","geometry":{"type":"Point","coordinates":[-86.2970069,39.7161642]},"properties":{"name_en":null}},
{"type":"Feature","geometry":{"type":"Point","coordinates":[-97.6637753,30.1935042]},"properties":{"name_en":"Austin-Bergstrom International Airport"}},
{"type":"Feature","geometry":{"type":"Point","coordinates":[-78.787623,35.8800028]},"properties":{"name_en":"Raleigh-Durham International Airport"}},
{"type":"Feature","geometry":{"type":"Point","coordinates":[-80.1497953,26.0723139]},"properties":{"name_en":null}},
{"type":"Feature","geometry":{"type":"Point","coordinates":[11.0777491,49.4982067]},"properties":{"name_en":"Albrecht Dürer Airport Nuremberg"}},
{"type":"Feature","geometry":{"type":"Point","coordinates":[36.2863675,36.3613271]},"properties":{"name_en":null}},
{"type":"Feature","geometry":{"type":"Point","coordinates":[130.8830087,-12.4118212]},"properties":{"name_en":null}},
{"type":"Feature","geometry":{"type":"Point","coordinates":[-122.873755,42.3728812]},"properties":{"name_en":"Rogue Valley International-Medford Airport"}},
{"type":"Feature","geometry":{"type":"Point","coordinates":[-69.6706373,18.4293527]},"properties":{"name_en":"Las Américas International Airport"}},
{"type":"Feature","geometry":{"type":"Point","coordinates":[25.9557999,40.8563446]},"properties":{"name_en":"Alexandroupoli Democritus Airport"}},
{"type":"Feature","geometry":{"type":"Point","coordinates":[1.3414472,36.2132967]},"properties":{"name_en":"Chlef Airport/ AbouBakr Belkaid"}},
{"type":"Feature","geometry":{"type":"Point","coordinates":[7.5250502,47.60318]},"properties":{"name_en":"EuroAirport Basel-Mulhouse-Freiburg"}},
{"type":"Feature","geometry":{"type":"Point","coordinates":[43.2711882,-11.5335433]},"properties":{"name_en":"Prince Said Ibrahim International Airport"}},
{"type":"Feature","geometry":{"type":"Point","coordinates":[95.9727376,21.7050061]},"properties":{"name_en":"Mandalay International Airport"}},
{"type":"Feature","geometry":{"type":"Point","coordinates":[32.5064943,46.6764023]},"properties":{"name_en":"Kherson International Airport"}},
{"type":"Feature","geometry":{"type":"Point","coordinates":[118.627016,-20.3763989]},"properties":{"name_en":null}},
{"type":"Feature","geometry":{"type":"Point","coordinates":[17.8279551,48.622106]},"properties":{"name_en":"Piešťany International Airport"}},
{"type":"Feature","geometry":{"type":"Point","coordinates":[140.419512,-8.5236133]},"properties":{"name_en":"Mopah International Airport"}},
{"type":"Feature","geometry":{"type":"Point","coordinates":[8.7254233,45.629959]},"properties":{"name_en":"Milan-Malpensa International Airport"}},
{"type":"Feature","geometry":{"type":"Point","coordinates":[20.4150766,42.0351137]},"properties":{"name_en":"Kukes International Airport Zayed"}},
{"type":"Feature","geometry":{"type":"Point","coordinates":[76.4026587,10.1544602]},"properties":{"name_en":"Cochin International Airport"}},
{"type":"Feature","geometry":{"type":"Point","coordinates":[54.0905924,17.0399816]},"properties":{"name_en":"Salalah Airport"}},
{"type":"Feature","geometry":{"type":"Point","coordinates":[19.0821308,50.4753342]},"properties":{"name_en":"Katowice Airport"}},
{"type":"Feature","geometry":{"type":"Point","coordinates":[-0.1883773,51.1540917]},"properties":{"name_en":null}},
{"type":"Feature","geometry":{"type":"Point","coordinates":[3.1002487,50.5678539]},"properties":{"name_en":"Lille - Lesquin International Airport"}},
{"type":"Feature","geometry":{"type":"Point","coordinates":[108.7633047,34.4386727]},"properties":{"name_en":"Xi'an Xianyang International Airport(XIY)"}},
{"type":"Feature","geometry":{"type":"Point","coordinates":[21.8546779,43.3363428]},"properties":{"name_en":"Airport Niš Constantine the Great"}},
{"type":"Feature","geometry":{"type":"Point","coordinates":[-8.488188,51.8414347]},"properties":{"name_en":"Cork Airport"}},
{"type":"Feature","geometry":{"type":"Point","coordinates":[-68.9587047,12.1890295]},"properties":{"name_en":null}},
{"type":"Feature","geometry":{"type":"Point","coordinates":[-54.1123666,-31.3906036]},"properties":{"name_en":"Comandante Gustavo Kraemer International Airport"}},
{"type":"Feature","geometry":{"type":"Point","coordinates":[-71.009697,42.3631431]},"properties":{"name_en":"Logan International Airport"}},
{"type":"Feature","geometry":{"type":"Point","coordinates":[21.033169,42.5742916]},"properties":{"name_en":"Pristina International Airport \"Adem Jashari\""}},
{"type":"Feature","geometry":{"type":"Point","coordinates":[74.7974456,31.708668]},"properties":{"name_en":null}},
{"type":"Feature","geometry":{"type":"Point","coordinates":[117.5564213,34.0585171]},"properties":{"name_en":"Xuzhou Guanyin Airport"}},
{"type":"Feature","geometry":{"type":"Point","coordinates":[106.3905756,38.321069]},"properties":{"name_en":"Yinchuan Hedong International Airport"}},
{"type":"Feature","geometry":{"type":"Point","coordinates":[-117.6021936,34.0555734]},"properties":{"name_en":null}},
{"type":"Feature","geometry":{"type":"Point","coordinates":[139.7890264,35.5456993]},"properties":{"name_en":"Tokyo International Airport"}},
{"type":"Feature","geometry":{"type":"Point","coordinates":[-106.4269223,31.6384854]},"properties":{"name_en":"Abraham González International Airport"}},
{"type":"Feature","geometry":{"type":"Point","coordinates":[32.4886379,34.7179724]},"properties":{"name_en":"Paphos International Airport"}},
{"type":"Feature","geometry":{"type":"Point","coordinates":[-61.3361362,10.5970493]},"properties":{"name_en":null}},
{"type":"Feature","geometry":{"type":"Point","coordinates":[-68.2644952,12.1312561]},"properties":{"name_en":null}},
{"type":"Feature","geometry":{"type":"Point","coordinates":[-71.7271701,10.557801]},"properties":{"name_en":"La Chinita International Airport"}},
{"type":"Feature","geometry":{"type":"Point","coordinates":[-60.9536896,13.7342676]},"properties":{"name_en":null}},
{"type":"Feature","geometry":{"type":"Point","coordinates":[5.2135912,43.4375586]},"properties":{"name_en":null}},
{"type":"Feature","geometry":{"type":"Point","coordinates":[1.3637499,43.6299473]},"properties":{"name_en":null}},
{"type":"Feature","geometry":{"type":"Point","coordinates":[-6.0619245,36.7441358]},"properties":{"name_en":"Jerez Airport"}},
{"type":"Feature","geometry":{"type":"Point","coordinates":[17.214379,48.1723008]},"properties":{"name_en":"M. R. Stefanik International Airport"}},
{"type":"Feature","geometry":{"type":"Point","coordinates":[49.3739332,14.6602343]},"properties":{"name_en":"Riyan International Airport"}},
{"type":"Feature","geometry":{"type":"Point","coordinates":[-61.531414,16.2658104]},"properties":{"name_en":"Pointe-à-Pitre International Airport"}},
{"type":"Feature","geometry":{"type":"Point","coordinates":[-52.754239,47.6193342]},"properties":{"name_en":null}},
{"type":"Feature","geometry":{"type":"Point","coordinates":[33.6185219,34.8703048]},"properties":{"name_en":"Larnaca International Airport – Glafcos Clerides"}},
{"type":"Feature","geometry":{"type":"Point","coordinates":[-13.8658986,28.4473319]},"properties":{"name_en":"Fuerteventura Airport"}},
{"type":"Feature","geometry":{"type":"Point","coordinates":[6.110509,62.5603522]},"properties":{"name_en":"Ålesund Airport, Vigra"}},
{"type":"Feature","geometry":{"type":"Point","coordinates":[20.9347662,53.4812299]},"properties":{"name_en":null}},
{"type":"Feature","geometry":{"type":"Point","coordinates":[121.8148024,31.1413231]},"properties":{"name_en":"Shanghai Pudong International Airport"}},
{"type":"Feature","geometry":{"type":"Point","coordinates":[-65.1492625,-19.2424805]},"properties":{"name_en":"Alcantarí Airport"}},
{"type":"Feature","geometry":{"type":"Point","coordinates":[39.3713362,15.6673421]},"properties":{"name_en":"Massawa International Airport"}},
{"type":"Feature","geometry":{"type":"Point","coordinates":[8.0935282,4.8738052]},"properties":{"name_en":null}},
{"type":"Feature","geometry":{"type":"Point","coordinates":[179.1967609,-8.5239596]},"properties":{"name_en":null}},
{"type":"Feature","geometry":{"type":"Point","coordinates":[12.2365445,51.4210547]},"properties":{"name_en":"Leipzig/Halle Airport"}},
{"type":"Feature","geometry":{"type":"Point","coordinates":[67.1630662,24.9015634]},"properties":{"name_en":"Jinnah International Airport"}},
{"type":"Feature","geometry":{"type":"Point","coordinates":[-77.8465686,21.4205338]},"properties":{"name_en":"Ignacio Agramonte International Airport"}},
{"type":"Feature","geometry":{"type":"Point","coordinates":[98.3177466,8.1100064]},"properties":{"name_en":"Phuket International Airport"}},
{"type":"Feature","geometry":{"type":"Point","coordinates":[-75.8776653,23.5624651]},"properties":{"name_en":"Exuma International Airport"}},
{"type":"Feature","geometry":{"type":"Point","coordinates":[100.0625942,9.5488129]},"properties":{"name_en":"Samui International Airport"}},
{"type":"Feature","geometry":{"type":"Point","coordinates":[113.8045185,22.6380696]},"properties":{"name_en":"Shenzhen Bao'an International Airport"}},
{"type":"Feature","geometry":{"type":"Point","coordinates":[-80.4136324,22.1494889]},"properties":{"name_en":"Jaime González Airport"}},
{"type":"Feature","geometry":{"type":"Point","coordinates":[56.3801368,27.2219439]},"properties":{"name_en":"Bandar Abbas International Airport"}},
{"type":"Feature","geometry":{"type":"Point","coordinates":[-16.3429633,28.48294]},"properties":{"name_en":"Tenerife North Airport"}},
{"type":"Feature","geometry":{"type":"Point","coordinates":[0.2429264,51.8869677]},"properties":{"name_en":null}},
{"type":"Feature","geometry":{"type":"Point","coordinates":[9.3029748,11.7966246]},"properties":{"name_en":null}},
{"type":"Feature","geometry":{"type":"Point","coordinates":[6.143082,51.603057]},"properties":{"name_en":"Airport Weeze"}},
{"type":"Feature","geometry":{"type":"Point","coordinates":[13.4370666,-1.6558068]},"properties":{"name_en":"M'Vengue El Hadj Omar Bongo Ondimba International Airport"}},
{"type":"Feature","geometry":{"type":"Point","coordinates":[-62.762266,8.2878861]},"properties":{"name_en":"Manuel Carlos Piar Guayana International Airport"}},
{"type":"Feature","geometry":{"type":"Point","coordinates":[49.1355116,11.2777198]},"properties":{"name_en":"Bender Qassim International Airport"}},
{"type":"Feature","geometry":{"type":"Point","coordinates":[-81.7600672,24.5554499]},"properties":{"name_en":null}},
{"type":"Feature","geometry":{"type":"Point","coordinates":[-64.1322239,10.450849]},"properties":{"name_en":"Antonio José de Sucre International Airport"}},
{"type":"Feature","geometry":{"type":"Point","coordinates":[-81.3098741,28.4129881]},"properties":{"name_en":null}},
{"type":"Feature","geometry":{"type":"Point","coordinates":[51.6049263,25.2750087]},"properties":{"name_en":"Hamad International Airport"}},
{"type":"Feature","geometry":{"type":"Point","coordinates":[121.4620568,29.8263468]},"properties":{"name_en":"Ningbo Lishe International Airport"}},
{"type":"Feature","geometry":{"type":"Point","coordinates":[118.1296792,24.5438468]},"properties":{"name_en":"Xiamen Gaoqi International Airport"}},
{"type":"Feature","geometry":{"type":"Point","coordinates":[-75.8347732,19.9750855]},"properties":{"name_en":"Antonio Maceo International Airport"}},
{"type":"Feature","geometry":{"type":"Point","coordinates":[29.6959757,30.9139774]},"properties":{"name_en":"Borg El Arab International Airport"}},
{"type":"Feature","geometry":{"type":"Point","coordinates":[7.6224227,44.5473458]},"properties":{"name_en":"Cuneo International Airport"}},
{"type":"Feature","geometry":{"type":"Point","coordinates":[90.4017434,23.8423316]},"properties":{"name_en":"Hazrat Shahjalal International Airport"}},
{"type":"Feature","geometry":{"type":"Point","coordinates":[-117.5354756,47.6200474]},"properties":{"name_en":null}},
{"type":"Feature","geometry":{"type":"Point","coordinates":[23.8919835,52.1089165]},"properties":{"name_en":"Brest Airport"}},
{"type":"Feature","geometry":{"type":"Point","coordinates":[28.2638388,45.8438188]},"properties":{"name_en":"Cahul International Airport"}},
{"type":"Feature","geometry":{"type":"Point","coordinates":[35.0117765,29.7286897]},"properties":{"name_en":"Ilan and Assaf Ramon Timna International Airport"}},
{"type":"Feature","geometry":{"type":"Point","coordinates":[32.4470927,0.039011]},"properties":{"name_en":null}},
{"type":"Feature","geometry":{"type":"Point","coordinates":[124.9253812,1.5504619]},"properties":{"name_en":"Sam Ratulangi Airport"}},
{"type":"Feature","geometry":{"type":"Point","coordinates":[-57.7714301,-34.4552494]},"properties":{"name_en":"Laguna de Los Patos International Airport"}},
{"type":"Feature","geometry":{"type":"Point","coordinates":[171.272027,7.0650417]},"properties":{"name_en":null}},
{"type":"Feature","geometry":{"type":"Point","coordinates":[-170.7152063,-14.3346479]},"properties":{"name_en":null}},
{"type":"Feature","geometry":{"type":"Point","coordinates":[34.0629682,28.6852084]},"properties":{"name_en":"Saint Catherine Airport"}},
{"type":"Feature","geometry":{"type":"Point","coordinates":[30.8896424,30.1091292]},"properties":{"name_en":"Sphinx International Airport"}},
{"type":"Feature","geometry":{"type":"Point","coordinates":[-66.9942639,10.6031425]},"properties":{"name_en":"Simón Bolívar International Airport"}},
{"type":"Feature","geometry":{"type":"Point","coordinates":[110.4435484,29.1040335]},"properties":{"name_en":"Zhangjiajie Hehua International Airport"}},
{"type":"Feature","geometry":{"type":"Point","coordinates":[75.5444176,11.9172472]},"properties":{"name_en":"Kannur International Airport"}},
{"type":"Feature","geometry":{"type":"Point","coordinates":[74.4016872,31.5195167]},"properties":{"name_en":"Allama Iqbal International Airport"}},
{"type":"Feature","geometry":{"type":"Point","coordinates":[-82.9319471,39.8128831]},"properties":{"name_en":null}},
{"type":"Feature","geometry":{"type":"Point","coordinates":[55.370328,25.2524344]},"properties":{"name_en":"Dubai International Airport"}},
{"type":"Feature","geometry":{"type":"Point","coordinates":[44.2329255,33.2636607]},"properties":{"name_en":"Baghdad International Airport"}},
{"type":"Feature","geometry":{"type":"Point","coordinates":[44.216543,15.4744568]},"properties":{"name_en":"Sana'a International Airport"}},
{"type":"Feature","geometry":{"type":"Point","coordinates":[-56.5084101,-30.4016667]},"properties":{"name_en":"Artigas International Airport"}},
{"type":"Feature","geometry":{"type":"Point","coordinates":[-63.5277598,44.8616501]},"properties":{"name_en":null}},
{"type":"Feature","geometry":{"type":"Point","coordinates":[50.8229405,28.9572989]},"properties":{"name_en":"Bushehr Airport"}},
{"type":"Feature","geometry":{"type":"Point","coordinates":[-87.3871745,46.349652]},"properties":{"name_en":"Sawyer International Airport"}},
{"type":"Feature","geometry":{"type":"Point","coordinates":[-81.0512195,24.7258703]},"properties":{"name_en":"Florida Keys Marathon International Airport"}},
{"type":"Feature","geometry":{"type":"Point","coordinates":[-82.2245368,29.1755976]},"properties":{"name_en":"Ocala International Airport"}},
{"type":"Feature","geometry":{"type":"Point","coordinates":[10.7171264,53.8045836]},"properties":{"name_en":"Lübeck Airport"}},
{"type":"Feature","geometry":{"type":"Point","coordinates":[-8.6781798,41.2488334]},"properties":{"name_en":null}},
{"type":"Feature","geometry":{"type":"Point","coordinates":[8.6174807,51.6144732]},"properties":{"name_en":"Airport Paderborn/Lippstadt"}},
{"type":"Feature","geometry":{"type":"Point","coordinates":[12.5927407,41.7992581]},"properties":{"name_en":"Rome Ciampino Airport"}},
{"type":"Feature","geometry":{"type":"Point","coordinates":[12.2507002,41.8150784]},"properties":{"name_en":"Roma-Fiumicino Airport"}},
{"type":"Feature","geometry":{"type":"Point","coordinates":[-0.4201974,43.3791392]},"properties":{"name_en":"Pau Pyrénées Airport"}},
{"type":"Feature","geometry":{"type":"Point","coordinates":[80.1673029,12.9933657]},"properties":{"name_en":"Chennai Meenambakkam Airport"}},
{"type":"Feature","geometry":{"type":"Point","coordinates":[178.5606291,-18.0432392]},"properties":{"name_en":null}},
{"type":"Feature","geometry":{"type":"Point","coordinates":[6.6221427,36.2751358]},"properties":{"name_en":"Constantine Mohamed Boudifa Airport"}},
{"type":"Feature","geometry":{"type":"Point","coordinates":[-78.3292068,22.4613559]},"properties":{"name_en":"Jardines del Rey Airport"}},
{"type":"Feature","geometry":{"type":"Point","coordinates":[13.0036804,47.7934593]},"properties":{"name_en":"Salzburg Airport"}},
{"type":"Feature","geometry":{"type":"Point","coordinates":[13.7692881,51.1342879]},"properties":{"name_en":"Dresden Airport"}},
{"type":"Feature","geometry":{"type":"Point","coordinates":[7.1095409,49.2165992]},"properties":{"name_en":"Saarbrücken Airport"}},
{"type":"Feature","geometry":{"type":"Point","coordinates":[-111.9783657,40.7897483]},"properties":{"name_en":"Salt Lake City International Airport"}},
{"type":"Feature","geometry":{"type":"Point","coordinates":[-8.6284661,42.2329225]},"properties":{"name_en":"Vigo Airport"}},
{"type":"Feature","geometry":{"type":"Point","coordinates":[7.6837697,52.1341185]},"properties":{"name_en":"Münster Osnabrück Airport"}},
{"type":"Feature","geometry":{"type":"Point","coordinates":[-6.0330737,43.5615985]},"properties":{"name_en":"Asturias Airport"}},
{"type":"Feature","geometry":{"type":"Point","coordinates":[18.7246224,42.4037218]},"properties":{"name_en":"Tivat Airport"}},
{"type":"Feature","geometry":{"type":"Point","coordinates":[10.5592579,52.3191592]},"properties":{"name_en":null}},
{"type":"Feature","geometry":{"type":"Point","coordinates":[105.8051868,21.2189549]},"properties":{"name_en":"Noi Bai International Airport"}},
{"type":"Feature","geometry":{"type":"Point","coordinates":[-2.3697561,36.844141]},"properties":{"name_en":"Almeria airport"}},
{"type":"Feature","geometry":{"type":"Point","coordinates":[104.1193266,1.1222496]},"properties":{"name_en":"Hang Nadim Batam International Airport"}},
{"type":"Feature","geometry":{"type":"Point","coordinates":[-0.4564816,49.1762781]},"properties":{"name_en":null}},
{"type":"Feature","geometry":{"type":"Point","coordinates":[-55.9695459,-27.3834457]},"properties":{"name_en":null}},
{"type":"Feature","geometry":{"type":"Point","coordinates":[38.023212,59.2778553]},"properties":{"name_en":"Cherepovets International Airport"}},
{"type":"Feature","geometry":{"type":"Point","coordinates":[-72.2002106,19.7265457]},"properties":{"name_en":"Cap-Haitien International Airport"}},
{"type":"Feature","geometry":{"type":"Point","coordinates":[144.4741479,-38.039]},"properties":{"name_en":"Avalon Airport"}},
{"type":"Feature","geometry":{"type":"Point","coordinates":[-70.6048808,19.4054424]},"properties":{"name_en":"Cibao International Airport"}},
{"type":"Feature","geometry":{"type":"Point","coordinates":[-122.3083543,47.4474579]},"properties":{"name_en":"Seattle-Tacoma International Airport"}},
{"type":"Feature","geometry":{"type":"Point","coordinates":[35.2814689,36.982411]},"properties":{"name_en":null}},
{"type":"Feature","geometry":{"type":"Point","coordinates":[-122.2253404,37.7223484]},"properties":{"name_en":null}},
{"type":"Feature","geometry":{"type":"Point","coordinates":[12.9206773,50.2017623]},"properties":{"name_en":"Karlovy Vary International Airport"}},
{"type":"Feature","geometry":{"type":"Point","coordinates":[-8.3789432,43.3002933]},"properties":{"name_en":"A Coruña Airport"}},
{"type":"Feature","geometry":{"type":"Point","coordinates":[-8.4174874,42.8976883]},"properties":{"name_en":"Santiago - Rosalia de Castro Airport"}},
{"type":"Feature","geometry":{"type":"Point","coordinates":[-159.8058125,-21.2017225]},"properties":{"name_en":"Rarotonga International Airport"}},
{"type":"Feature","geometry":{"type":"Point","coordinates":[14.5024396,63.1941439]},"properties":{"name_en":"Åre Östersund Airport"}},
{"type":"Feature","geometry":{"type":"Point","coordinates":[56.0235838,57.9156329]},"properties":{"name_en":"Bolshoye Savino Airport"}},
{"type":"Feature","geometry":{"type":"Point","coordinates":[129.7721319,62.0914375]},"properties":{"name_en":"Yakutsk Airport"}},
{"type":"Feature","geometry":{"type":"Point","coordinates":[49.27852,55.6074545]},"properties":{"name_en":"Kazan Airport"}},
{"type":"Feature","geometry":{"type":"Point","coordinates":[39.5986774,-4.0266813]},"properties":{"name_en":null}},
{"type":"Feature","geometry":{"type":"Point","coordinates":[23.8876901,44.3187633]},"properties":{"name_en":"Craiova Airport"}},
{"type":"Feature","geometry":{"type":"Point","coordinates":[26.1023615,44.5683501]},"properties":{"name_en":"Henri Coandă International Airport (OTP)"}},
{"type":"Feature","geometry":{"type":"Point","coordinates":[28.4832284,44.3608395]},"properties":{"name_en":"Mihail Kogălniceanu International Airport"}},
{"type":"Feature","geometry":{"type":"Point","coordinates":[24.4126731,46.4678388]},"properties":{"name_en":"Târgu Mureș International Airport"}},
{"type":"Feature","geometry":{"type":"Point","coordinates":[21.9021591,47.0274773]},"properties":{"name_en":"Oradea International Airport"}},
{"type":"Feature","geometry":{"type":"Point","coordinates":[27.6207926,47.1799233]},"properties":{"name_en":null}},
{"type":"Feature","geometry":{"type":"Point","coordinates":[26.3542802,47.6878256]},"properties":{"name_en":"Suceava Stefan cel Mare Airport"}},
{"type":"Feature","geometry":{"type":"Point","coordinates":[34.7243856,-0.0873736]},"properties":{"name_en":null}},
{"type":"Feature","geometry":{"type":"Point","coordinates":[35.4979243,38.7734091]},"properties":{"name_en":"Kayseri Erkilet Airport"}},
{"type":"Feature","geometry":{"type":"Point","coordinates":[15.647816,38.0726286]},"properties":{"name_en":"Reggio Calabria Airport"}},
{"type":"Feature","geometry":{"type":"Point","coordinates":[18.6135267,49.2334723]},"properties":{"name_en":"Žilina"}},
{"type":"Feature","geometry":{"type":"Point","coordinates":[58.5962744,51.0735409]},"properties":{"name_en":"Orsk Airport"}},
{"type":"Feature","geometry":{"type":"Point","coordinates":[46.2418722,38.1355518]},"properties":{"name_en":"Tabriz International Airport"}},
{"type":"Feature","geometry":{"type":"Point","coordinates":[109.414719,18.304801]},"properties":{"name_en":"Sanya Phoenix International Airport"}},
{"type":"Feature","geometry":{"type":"Point","coordinates":[-17.7550811,28.6266883]},"properties":{"name_en":"La Palma Airport"}},
{"type":"Feature","geometry":{"type":"Point","coordinates":[-61.7920685,17.1356235]},"properties":{"name_en":"V. C. Bird International Airport"}},
{"type":"Feature","geometry":{"type":"Point","coordinates":[9.1585345,55.7398878]},"properties":{"name_en":"Billund Airport"}},
{"type":"Feature","geometry":{"type":"Point","coordinates":[-70.0154973,12.5020631]},"properties":{"name_en":"Queen Beatrix International Airport"}},
{"type":"Feature","geometry":{"type":"Point","coordinates":[-63.511419,44.8796251]},"properties":{"name_en":null}},
{"type":"Feature","geometry":{"type":"Point","coordinates":[-78.7285987,42.9398993]},"properties":{"name_en":"Buffalo-Niagara International Airport"}},
{"type":"Feature","geometry":{"type":"Point","coordinates":[5.0873268,45.7245281]},"properties":{"name_en":"Lyon-Saint Exupéry Airport"}},
{"type":"Feature","geometry":{"type":"Point","coordinates":[118.7583992,9.7423378]},"properties":{"name_en":"Puerto Princesa International Airport"}},
{"type":"Feature","geometry":{"type":"Point","coordinates":[-169.9257454,-19.0789876]},"properties":{"name_en":"Niue International Airport"}},
{"type":"Feature","geometry":{"type":"Point","coordinates":[-0.3701408,51.8780363]},"properties":{"name_en":null}},
{"type":"Feature","geometry":{"type":"Point","coordinates":[25.3505478,64.9314068]},"properties":{"name_en":null}},
{"type":"Feature","geometry":{"type":"Point","coordinates":[-80.2918816,25.7955406]},"properties":{"name_en":null}},
{"type":"Feature","geometry":{"type":"Point","coordinates":[59.2816382,32.8997359]},"properties":{"name_en":"Birjand Shahid Kaveh International Airport"}},
{"type":"Feature","geometry":{"type":"Point","coordinates":[88.3297991,26.6817981]},"properties":{"name_en":"Bagdogra Airport"}},
{"type":"Feature","geometry":{"type":"Point","coordinates":[116.5034189,23.5521866]},"properties":{"name_en":"Jieyang Chaoshan International Airport"}},
{"type":"Feature","geometry":{"type":"Point","coordinates":[48.4176971,38.3240306]},"properties":{"name_en":"Ardabil Airport"}},
{"type":"Feature","geometry":{"type":"Point","coordinates":[53.190951,36.6453398]},"properties":{"name_en":"Sari Dasht-e-Naz International Airport"}},
{"type":"Feature","geometry":{"type":"Point","coordinates":[-81.4365679,23.0339306]},"properties":{"name_en":"Juan Gualberto Gómez International Airport"}},
{"type":"Feature","geometry":{"type":"Point","coordinates":[60.9010069,29.4756604]},"properties":{"name_en":"Flughafen Zahedan"}},
{"type":"Feature","geometry":{"type":"Point","coordinates":[27.1735192,-25.3338111]},"properties":{"name_en":null}},
{"type":"Feature","geometry":{"type":"Point","coordinates":[36.5634059,41.2562704]},"properties":{"name_en":"Samsun-Çarşamba Airport"}},
{"type":"Feature","geometry":{"type":"Point","coordinates":[79.0438937,21.0895378]},"properties":{"name_en":null}},
{"type":"Feature","geometry":{"type":"Point","coordinates":[39.2065036,-6.8741295]},"properties":{"name_en":null}},
{"type":"Feature","geometry":{"type":"Point","coordinates":[31.4139136,30.1140385]},"properties":{"name_en":"Cairo International Airport"}},
{"type":"Feature","geometry":{"type":"Point","coordinates":[-63.1084561,18.0409734]},"properties":{"name_en":null}},
{"type":"Feature","geometry":{"type":"Point","coordinates":[-89.0584559,13.4485251]},"properties":{"name_en":"El Salvador International Airport"}},
{"type":"Feature","geometry":{"type":"Point","coordinates":[-92.4999136,43.904707]},"properties":{"name_en":null}},
{"type":"Feature","geometry":{"type":"Point","coordinates":[-74.1726455,40.6891397]},"properties":{"name_en":"Newark Liberty International Airport"}},
{"type":"Feature","geometry":{"type":"Point","coordinates":[16.0652153,45.7405766]},"properties":{"name_en":"Zagreb International Airport"}},
{"type":"Feature","geometry":{"type":"Point","coordinates":[16.2996192,43.5396822]},"properties":{"name_en":"Split Airport"}},
{"type":"Feature","geometry":{"type":"Point","coordinates":[136.1051198,-1.1885075]},"properties":{"name_en":"Frans Kaisiepo International Airport"}},
{"type":"Feature","geometry":{"type":"Point","coordinates":[110.432448,-7.7931728]},"properties":{"name_en":"Adisutjipto International Airport"}},
{"type":"Feature","geometry":{"type":"Point","coordinates":[-93.2187802,44.8779985]},"properties":{"name_en":"Minneapolis-Saint Paul International Airport"}},
{"type":"Feature","geometry":{"type":"Point","coordinates":[111.8243542,40.8503427]},"properties":{"name_en":"Hohhot Baita International Airport"}},
{"type":"Feature","geometry":{"type":"Point","coordinates":[18.110789,49.6968501]},"properties":{"name_en":"Ostrava Leos Janacek Airport"}},
{"type":"Feature","geometry":{"type":"Point","coordinates":[145.7290087,15.120378]},"properties":{"name_en":null}},
{"type":"Feature","geometry":{"type":"Point","coordinates":[-3.5619325,40.4949771]},"properties":{"name_en":"Adolfo Suárez Madrid-Barajas Airport"}},
{"type":"Feature","geometry":{"type":"Point","coordinates":[125.4783437,8.9516182]},"properties":{"name_en":null}},
{"type":"Feature","geometry":{"type":"Point","coordinates":[28.0397071,53.8876262]},"properties":{"name_en":"Minsk International Airport"}},
{"type":"Feature","geometry":{"type":"Point","coordinates":[19.9120706,39.6018935]},"properties":{"name_en":"Corfu Ioannis Kapodistrias Int'l Airport"}},
{"type":"Feature","geometry":{"type":"Point","coordinates":[51.3023055,35.6898165]},"properties":{"name_en":"Mehrabad International Airport"}},
{"type":"Feature","geometry":{"type":"Point","coordinates":[48.3600959,36.7733782]},"properties":{"name_en":"Zanjan International Airport"}},
{"type":"Feature","geometry":{"type":"Point","coordinates":[-0.4836608,39.4880551]},"properties":{"name_en":"Valencia International Airport"}},
{"type":"Feature","geometry":{"type":"Point","coordinates":[-8.8191897,53.9117136]},"properties":{"name_en":null}},
{"type":"Feature","geometry":{"type":"Point","coordinates":[-64.6929811,10.1073083]},"properties":{"name_en":"José Antonio Anzoátegui International Airport"}},
{"type":"Feature","geometry":{"type":"Point","coordinates":[53.9825827,26.5300597]},"properties":{"name_en":"Kish International Airport"}},
{"type":"Feature","geometry":{"type":"Point","coordinates":[116.9736202,31.9885603]},"properties":{"name_en":"Hefei Xinqiao International Airport"}},
{"type":"Feature","geometry":{"type":"Point","coordinates":[1.3724546,38.8731281]},"properties":{"name_en":"Ibiza Airport"}},
{"type":"Feature","geometry":{"type":"Point","coordinates":[81.1241706,6.2861562]},"properties":{"name_en":"Mattala Rajapaksa International Airport"}},
{"type":"Feature","geometry":{"type":"Point","coordinates":[42.4802765,42.1757183]},"properties":{"name_en":"David the Builder Kutaisi International Airport"}},
{"type":"Feature","geometry":{"type":"Point","coordinates":[27.6629818,37.2496189]},"properties":{"name_en":"Milas–Bodrum Airport"}},
{"type":"Feature","geometry":{"type":"Point","coordinates":[1.1684591,41.1463286]},"properties":{"name_en":"Reus Airport"}},
{"type":"Feature","geometry":{"type":"Point","coordinates":[19.7196105,41.4139584]},"properties":{"name_en":"Tirana International Airport Mother Teresa"}},
{"type":"Feature","geometry":{"type":"Point","coordinates":[15.0347438,12.1359304]},"properties":{"name_en":"N'Djamena International Airport"}},
{"type":"Feature","geometry":{"type":"Point","coordinates":[-5.9203803,35.7292173]},"properties":{"name_en":"Tangier Ibn Battouta Airport"}},
{"type":"Feature","geometry":{"type":"Point","coordinates":[34.8787236,32.0029934]},"properties":{"name_en":"Ben Gurion International Airport"}},
{"type":"Feature","geometry":{"type":"Point","coordinates":[-63.0539256,18.2054699]},"properties":{"name_en":"Clayton J. Lloyd International Airport"}},
{"type":"Feature","geometry":{"type":"Point","coordinates":[-1.7908487,43.3565362]},"properties":{"name_en":"San Sebastián Airport"}},
{"type":"Feature","geometry":{"type":"Point","coordinates":[54.3938926,36.9145608]},"properties":{"name_en":"Gorgan International Airport"}},
{"type":"Feature","geometry":{"type":"Point","coordinates":[44.1372005,13.6864526]},"properties":{"name_en":"Ta'izz International Airport"}},
{"type":"Feature","geometry":{"type":"Point","coordinates":[6.1421856,31.6749755]},"properties":{"name_en":"Hassi Messaoud Krim Belkacem Airport"}},
{"type":"Feature","geometry":{"type":"Point","coordinates":[30.6853824,46.4272859]},"properties":{"name_en":"Odessa International Airport"}},
{"type":"Feature","geometry":{"type":"Point","coordinates":[48.7879099,15.9659939]},"properties":{"name_en":"Seiyun Airport"}},
{"type":"Feature","geometry":{"type":"Point","coordinates":[-94.7097541,39.3024609]},"properties":{"name_en":"Kansas City International Airport"}},
{"type":"Feature","geometry":{"type":"Point","coordinates":[14.6070941,36.9949291]},"properties":{"name_en":"Comiso Airport"}},
{"type":"Feature","geometry":{"type":"Point","coordinates":[28.8842503,-16.5180888]},"properties":{"name_en":"Kariba International Airport"}},
{"type":"Feature","geometry":{"type":"Point","coordinates":[69.4755057,42.3650306]},"properties":{"name_en":"Shymkent International Airport"}},
{"type":"Feature","geometry":{"type":"Point","coordinates":[108.1984008,16.0428882]},"properties":{"name_en":"Da Nang International Airport"}},
{"type":"Feature","geometry":{"type":"Point","coordinates":[48.2295362,30.3667994]},"properties":{"name_en":"Abadan international Airport"}},
{"type":"Feature","geometry":{"type":"Point","coordinates":[-115.1457407,36.0861332]},"properties":{"name_en":"Harry Reid International Airport"}},
{"type":"Feature","geometry":{"type":"Point","coordinates":[126.2482477,45.6220592]},"properties":{"name_en":"Harbin Taiping International Airport"}},
{"type":"Feature","geometry":{"type":"Point","coordinates":[3.9664417,43.5798377]},"properties":{"name_en":null}},
{"type":"Feature","geometry":{"type":"Point","coordinates":[57.6827542,-20.4324329]},"properties":{"name_en":"Sir Seewoosagur Ramgoolam International Airport"}},
{"type":"Feature","geometry":{"type":"Point","coordinates":[-80.0436478,32.8994893]},"properties":{"name_en":"Charleston International Airport"}},
{"type":"Feature","geometry":{"type":"Point","coordinates":[-96.8141641,46.9215485]},"properties":{"name_en":"Hector International Airport"}},
{"type":"Feature","geometry":{"type":"Point","coordinates":[-13.6074809,28.945604]},"properties":{"name_en":"Lanzarote Airport"}},
{"type":"Feature","geometry":{"type":"Point","coordinates":[24.0866433,45.7871614]},"properties":{"name_en":"Sibiu International Airport"}},
{"type":"Feature","geometry":{"type":"Point","coordinates":[28.7868553,36.7117894]},"properties":{"name_en":"Dalaman Airport"}},
{"type":"Feature","geometry":{"type":"Point","coordinates":[-15.9737389,18.3007047]},"properties":{"name_en":"Nouakchott International Airport - Oumtounsy"}},
{"type":"Feature","geometry":{"type":"Point","coordinates":[20.9636231,52.1630876]},"properties":{"name_en":"Warsaw Chopin Airport"}},
{"type":"Feature","geometry":{"type":"Point","coordinates":[20.3088032,44.8182243]},"properties":{"name_en":"Belgrade Nikola Tesla Airport"}},
{"type":"Feature","geometry":{"type":"Point","coordinates":[-63.9697274,10.9133844]},"properties":{"name_en":"Santiago Mariño Caribbean International Airport"}},
{"type":"Feature","geometry":{"type":"Point","coordinates":[-56.264493,-34.7886348]},"properties":{"name_en":null}},
{"type":"Feature","geometry":{"type":"Point","coordinates":[77.7062643,13.197653]},"properties":{"name_en":null}},
{"type":"Feature","geometry":{"type":"Point","coordinates":[-173.9629027,-18.5854753]},"properties":{"name_en":null}},
{"type":"Feature","geometry":{"type":"Point","coordinates":[-76.9698355,18.4043963]},"properties":{"name_en":null}},
{"type":"Feature","geometry":{"type":"Point","coordinates":[25.8356829,-18.0967659]},"properties":{"name_en":null}},
{"type":"Feature","geometry":{"type":"Point","coordinates":[-71.121316,18.25193]},"properties":{"name_en":"María Montez International Airport"}},
{"type":"Feature","geometry":{"type":"Point","coordinates":[-0.1903437,27.8352015]},"properties":{"name_en":"Adrar / Touat Cheikh Sidi Mohamed Belkebir Airport"}},
{"type":"Feature","geometry":{"type":"Point","coordinates":[-68.912207,18.4518622]},"properties":{"name_en":"La Romana International Airport"}},
{"type":"Feature","geometry":{"type":"Point","coordinates":[26.2967801,-29.0923124]},"properties":{"name_en":null}},
{"type":"Feature","geometry":{"type":"Point","coordinates":[-1.6459152,42.7710274]},"properties":{"name_en":"Airport of Pamplona - Noáin"}},
{"type":"Feature","geometry":{"type":"Point","coordinates":[34.968639,-15.6759814]},"properties":{"name_en":null}},
{"type":"Feature","geometry":{"type":"Point","coordinates":[8.7983342,41.9215167]},"properties":{"name_en":null}},
{"type":"Feature","geometry":{"type":"Point","coordinates":[114.694973,38.2803612]},"properties":{"name_en":"Shijiazhuang Zhengding International Airport"}},
{"type":"Feature","geometry":{"type":"Point","coordinates":[-67.0787467,-17.9553509]},"properties":{"name_en":"Juan Mendoza Airport"}},
{"type":"Feature","geometry":{"type":"Point","coordinates":[23.5040235,39.1781143]},"properties":{"name_en":"Skiathos Airport ‘Alexandros Papadiamantis’"}},
{"type":"Feature","geometry":{"type":"Point","coordinates":[116.5938286,40.0803339]},"properties":{"name_en":"Beijing Capital International Airport"}},
{"type":"Feature","geometry":{"type":"Point","coordinates":[118.5888542,24.7968172]},"properties":{"name_en":"Quanzhou Jingjiang International Airport"}},
{"type":"Feature","geometry":{"type":"Point","coordinates":[20.8843325,37.751161]},"properties":{"name_en":null}},
{"type":"Feature","geometry":{"type":"Point","coordinates":[-75.7665501,4.4504017]},"properties":{"name_en":"El Eden International Airport"}},
{"type":"Feature","geometry":{"type":"Point","coordinates":[167.2198441,-15.5046281]},"properties":{"name_en":null}},
{"type":"Feature","geometry":{"type":"Point","coordinates":[144.833618,-37.6671178]},"properties":{"name_en":"Melbourne Airport"}},
{"type":"Feature","geometry":{"type":"Point","coordinates":[101.009599,12.6829861]},"properties":{"name_en":"UTP U-Tapao - Pattaya International airport"}},
{"type":"Feature","geometry":{"type":"Point","coordinates":[-65.0945473,-24.3933307]},"properties":{"name_en":"Gobernador Horacio Guzman International Airport"}},
{"type":"Feature","geometry":{"type":"Point","coordinates":[9.4617497,24.2855901]},"properties":{"name_en":"Djanet Tiska Airport"}},
{"type":"Feature","geometry":{"type":"Point","coordinates":[120.5579887,15.1873225]},"properties":{"name_en":"Clark International Airport"}},
{"type":"Feature","geometry":{"type":"Point","coordinates":[125.6447844,7.1249849]},"properties":{"name_en":"Francisco Bangoy International Airport"}},
{"type":"Feature","geometry":{"type":"Point","coordinates":[2.0826892,41.2968559]},"properties":{"name_en":"Barcelona El Prat Josep Tarradellas Airport"}},
{"type":"Feature","geometry":{"type":"Point","coordinates":[-3.3438203,51.3978554]},"properties":{"name_en":null}},
{"type":"Feature","geometry":{"type":"Point","coordinates":[177.441765,-17.7616334]},"properties":{"name_en":null}},
{"type":"Feature","geometry":{"type":"Point","coordinates":[121.2313547,25.07917]},"properties":{"name_en":"Taiwan Taoyuan International Airport"}},
{"type":"Feature","geometry":{"type":"Point","coordinates":[-17.0735801,14.6714115]},"properties":{"name_en":"Blaise Diagne International Airport"}},
{"type":"Feature","geometry":{"type":"Point","coordinates":[120.4292516,30.2366743]},"properties":{"name_en":"Hangzhou Xiaoshan International Airport"}},
{"type":"Feature","geometry":{"type":"Point","coordinates":[39.9240013,47.493616]},"properties":{"name_en":"Platov International Airport"}},
{"type":"Feature","geometry":{"type":"Point","coordinates":[16.8274877,52.4205453]},"properties":{"name_en":"Poznań-Ławica Airport"}},
{"type":"Feature","geometry":{"type":"Point","coordinates":[3.172936,45.7850178]},"properties":{"name_en":"Clermont-Ferrand Auvergne Airport"}},
{"type":"Feature","geometry":{"type":"Point","coordinates":[-5.8949838,37.4176216]},"properties":{"name_en":null}},
{"type":"Feature","geometry":{"type":"Point","coordinates":[-17.4900236,14.7363381]},"properties":{"name_en":"Military airport - Léopold Sédar Senghor International old Airport"}},
{"type":"Feature","geometry":{"type":"Point","coordinates":[6.1086227,46.237796]},"properties":{"name_en":"Geneva International Airport"}},
{"type":"Feature","geometry":{"type":"Point","coordinates":[7.2150735,43.6597926]},"properties":{"name_en":"Nice Côte d'Azur Airport"}},
{"type":"Feature","geometry":{"type":"Point","coordinates":[-69.7370337,19.2691645]},"properties":{"name_en":null}},
{"type":"Feature","geometry":{"type":"Point","coordinates":[162.9584183,5.3564719]},"properties":{"name_en":null}},
{"type":"Feature","geometry":{"type":"Point","coordinates":[105.6903977,-10.4501526]},"properties":{"name_en":null}},
{"type":"Feature","geometry":{"type":"Point","coordinates":[15.3444247,44.1001724]},"properties":{"name_en":"Zadar Airport"}},
{"type":"Feature","geometry":{"type":"Point","coordinates":[41.172697,39.9493498]},"properties":{"name_en":"Erzurum Airport"}},
{"type":"Feature","geometry":{"type":"Point","coordinates":[-17.2144438,28.030506]},"properties":{"name_en":"La Gomera Airport"}},
{"type":"Feature","geometry":{"type":"Point","coordinates":[-77.1117833,-12.0217855]},"properties":{"name_en":"Jorge Chávez International Airport"}},
{"type":"Feature","geometry":{"type":"Point","coordinates":[6.2114078,49.6263875]},"properties":{"name_en":"Luxembourg Airport"}},
{"type":"Feature","geometry":{"type":"Point","coordinates":[119.7751691,31.9185017]},"properties":{"name_en":"Changzhou Benniu International Airport"}},
{"type":"Feature","geometry":{"type":"Point","coordinates":[24.9440881,60.3217956]},"properties":{"name_en":"Helsinki Airport"}},
{"type":"Feature","geometry":{"type":"Point","coordinates":[11.0991856,60.1978165]},"properties":{"name_en":"Oslo Airport, Gardermoen"}},
{"type":"Feature","geometry":{"type":"Point","coordinates":[121.3342185,31.19765]},"properties":{"name_en":"Shanghai Hongqiao International Airport"}},
{"type":"Feature","geometry":{"type":"Point","coordinates":[-4.4958293,36.6784208]},"properties":{"name_en":"Málaga – Costa del Sol Airport"}},
{"type":"Feature","geometry":{"type":"Point","coordinates":[27.1596018,38.2892742]},"properties":{"name_en":"Adnan Menderes Airport"}},
{"type":"Feature","geometry":{"type":"Point","coordinates":[123.486593,41.6370098]},"properties":{"name_en":"Shenyang Taoxian International Airport"}},
{"type":"Feature","geometry":{"type":"Point","coordinates":[2.1843727,13.4901039]},"properties":{"name_en":"Diori Hamani International Airport"}},
{"type":"Feature","geometry":{"type":"Point","coordinates":[149.192362,-35.303303]},"properties":{"name_en":"Canberra Airport"}},
{"type":"Feature","geometry":{"type":"Point","coordinates":[14.4592579,46.2227014]},"properties":{"name_en":"Ljubljana Jože Pučnik Airport"}},
{"type":"Feature","geometry":{"type":"Point","coordinates":[108.1753202,22.6087338]},"properties":{"name_en":"Nanning Wuxu International Airport"}},
{"type":"Feature","geometry":{"type":"Point","coordinates":[109.4622242,18.287416]},"properties":{"name_en":null}},
{"type":"Feature","geometry":{"type":"Point","coordinates":[147.512362,-42.8366507]},"properties":{"name_en":"Hobart Airport"}},
{"type":"Feature","geometry":{"type":"Point","coordinates":[110.371765,-6.9695328]},"properties":{"name_en":"Ahmad Yani Airport"}},
{"type":"Feature","geometry":{"type":"Point","coordinates":[123.6739849,-10.1721251]},"properties":{"name_en":"El Tari Airport"}},
{"type":"Feature","geometry":{"type":"Point","coordinates":[153.1154227,-27.387467]},"properties":{"name_en":null}},
{"type":"Feature","geometry":{"type":"Point","coordinates":[18.9166194,69.6819895]},"properties":{"name_en":"Tromsø Airport, Langnes"}},
{"type":"Feature","geometry":{"type":"Point","coordinates":[-90.5273645,14.5837394]},"properties":{"name_en":"La Aurora International Airport"}},
{"type":"Feature","geometry":{"type":"Point","coordinates":[20.585926,43.8182468]},"properties":{"name_en":"Morava Airport"}},
{"type":"Feature","geometry":{"type":"Point","coordinates":[91.8625004,24.9637995]},"properties":{"name_en":"M.A.G. Osmani International Airport"}},
{"type":"Feature","geometry":{"type":"Point","coordinates":[98.9840202,2.2611608]},"properties":{"name_en":"Sisingamangaraja XII International Airport"}},
{"type":"Feature","geometry":{"type":"Point","coordinates":[-14.4017179,65.2827725]},"properties":{"name_en":"Egilsstaðir Airport"}},
{"type":"Feature","geometry":{"type":"Point","coordinates":[110.7608048,-7.5163471]},"properties":{"name_en":"Adi Sumarmo Airport"}},
{"type":"Feature","geometry":{"type":"Point","coordinates":[-44.2361592,-2.5883386]},"properties":{"name_en":"Marechal Cunha Machado International Airport"}},
{"type":"Feature","geometry":{"type":"Point","coordinates":[145.6191338,14.998713]},"properties":{"name_en":"Tinian International Airport"}},
{"type":"Feature","geometry":{"type":"Point","coordinates":[140.5193819,-2.5781968]},"properties":{"name_en":"Sentani International Airport"}},
{"type":"Feature","geometry":{"type":"Point","coordinates":[-35.792761,-9.5108519]},"properties":{"name_en":null}},
{"type":"Feature","geometry":{"type":"Point","coordinates":[113.9112872,22.3124987]},"properties":{"name_en":"Hong Kong International Airport"}},
{"type":"Feature","geometry":{"type":"Point","coordinates":[33.0015178,40.1231585]},"properties":{"name_en":"Esenboğa International Airport"}},
{"type":"Feature","geometry":{"type":"Point","coordinates":[23.9578154,49.8105816]},"properties":{"name_en":"Lviv Danylo Halytskyi International Airport"}},
{"type":"Feature","geometry":{"type":"Point","coordinates":[21.620224,41.9617052]},"properties":{"name_en":"Skopje International Airport"}},
{"type":"Feature","geometry":{"type":"Point","coordinates":[-69.3611627,10.043618]},"properties":{"name_en":"Jacinto Lara International Airport"}},
{"type":"Feature","geometry":{"type":"Point","coordinates":[55.5205602,-4.6741702]},"properties":{"name_en":"Seychelles International Airport"}},
{"type":"Feature","geometry":{"type":"Point","coordinates":[73.5304446,4.1962306]},"properties":{"name_en":"Velana International Airport"}},
{"type":"Feature","geometry":{"type":"Point","coordinates":[43.1591386,11.5470652]},"properties":{"name_en":"De Djibouti Internationa Airport"}},
{"type":"Feature","geometry":{"type":"Point","coordinates":[25.6931385,49.5295858]},"properties":{"name_en":"Ternopil International Airport"}},
{"type":"Feature","geometry":{"type":"Point","coordinates":[-149.9950463,61.181143]},"properties":{"name_en":null}},
{"type":"Feature","geometry":{"type":"Point","coordinates":[32.7065698,25.6705202]},"properties":{"name_en":"Luxor International Airport"}},
{"type":"Feature","geometry":{"type":"Point","coordinates":[21.949708,32.7954338]},"properties":{"name_en":"Al Abraq International Airport"}},
{"type":"Feature","geometry":{"type":"Point","coordinates":[-67.9284051,10.1516821]},"properties":{"name_en":"Arturo Michelena International Airport"}},
{"type":"Feature","geometry":{"type":"Point","coordinates":[-114.5591357,35.1550374]},"properties":{"name_en":null}},
{"type":"Feature","geometry":{"type":"Point","coordinates":[56.9559986,30.2819549]},"properties":{"name_en":"Kerman Ayatollah Hashemi Rafsanjani International Airport"}},
{"type":"Feature","geometry":{"type":"Point","coordinates":[-104.6727399,39.8608161]},"properties":{"name_en":"Denver International Airport"}},
{"type":"Feature","geometry":{"type":"Point","coordinates":[-79.5982493,8.9161773]},"properties":{"name_en":"Panama Pacifico International Airport"}},
{"type":"Feature","geometry":{"type":"Point","coordinates":[13.4677547,45.8261405]},"properties":{"name_en":"Trieste – Friuli Venezia Giulia Airport"}},
{"type":"Feature","geometry":{"type":"Point","coordinates":[-58.0677404,-32.3634488]},"properties":{"name_en":"Tydeo Larre Borges Airport"}},
{"type":"Feature","geometry":{"type":"Point","coordinates":[-54.2176936,-32.3383905]},"properties":{"name_en":"Cerro Largo International Airport"}},
{"type":"Feature","geometry":{"type":"Point","coordinates":[16.883831,51.1051144]},"properties":{"name_en":"Wroclaw Airport"}},
{"type":"Feature","geometry":{"type":"Point","coordinates":[32.6996836,25.672371]},"properties":{"name_en":"Luxor International Airport"}},
{"type":"Feature","geometry":{"type":"Point","coordinates":[-83.3743995,45.9586781]},"properties":{"name_en":null}},
{"type":"Feature","geometry":{"type":"Point","coordinates":[-4.4351667,55.8705835]},"properties":{"name_en":"Glasgow Airport"}},
{"type":"Feature","geometry":{"type":"Point","coordinates":[10.25805,59.1845254]},"properties":{"name_en":"Sandefjord Airport"}},
{"type":"Feature","geometry":{"type":"Point","coordinates":[102.7775596,17.3867791]},"properties":{"name_en":"Udon Thani International Airport"}},
{"type":"Feature","geometry":{"type":"Point","coordinates":[-58.325992,-33.9681057]},"properties":{"name_en":null}},
{"type":"Feature","geometry":{"type":"Point","coordinates":[96.8310274,-12.1878723]},"properties":{"name_en":null}},
{"type":"Feature","geometry":{"type":"Point","coordinates":[-4.4186671,48.4478772]},"properties":{"name_en":null}},
{"type":"Feature","geometry":{"type":"Point","coordinates":[5.7704958,50.9120343]},"properties":{"name_en":"Maastricht Aachen Airport"}},
{"type":"Feature","geometry":{"type":"Point","coordinates":[9.6801216,52.4614577]},"properties":{"name_en":"Hannover Airport"}},
{"type":"Feature","geometry":{"type":"Point","coordinates":[12.1270988,55.5858079]},"properties":{"name_en":null}},
{"type":"Feature","geometry":{"type":"Point","coordinates":[76.9196331,8.4819569]},"properties":{"name_en":"Thiruvananthapuram International Airport"}},
{"type":"Feature","geometry":{"type":"Point","coordinates":[-121.593136,38.6930046]},"properties":{"name_en":"Sacramento International Airport"}},
{"type":"Feature","geometry":{"type":"Point","coordinates":[10.8873757,45.3966634]},"properties":{"name_en":"Verona Villafranca Airport"}},
{"type":"Feature","geometry":{"type":"Point","coordinates":[27.5152922,42.5702378]},"properties":{"name_en":"Burgas Airport"}},
{"type":"Feature","geometry":{"type":"Point","coordinates":[103.8126787,13.4109079]},"properties":{"name_en":"Siem Reap International Airport"}},
{"type":"Feature","geometry":{"type":"Point","coordinates":[-1.51358,12.3501414]},"properties":{"name_en":"Ouagadougou International Airport"}},
{"type":"Feature","geometry":{"type":"Point","coordinates":[14.3418073,46.6432918]},"properties":{"name_en":"Klagenfurt Airport"}},
{"type":"Feature","geometry":{"type":"Point","coordinates":[71.4196347,30.2055312]},"properties":{"name_en":"Multan International Airport"}},
{"type":"Feature","geometry":{"type":"Point","coordinates":[-3.4136027,50.7348674]},"properties":{"name_en":"Exeter Airport"}},
{"type":"Feature","geometry":{"type":"Point","coordinates":[-81.5450102,21.6157916]},"properties":{"name_en":"Vitalio Acuña Airport"}},
{"type":"Feature","geometry":{"type":"Point","coordinates":[125.6854512,43.9965172]},"properties":{"name_en":"Changchun Longjia International Airport"}},
{"type":"Feature","geometry":{"type":"Point","coordinates":[25.1759542,35.3370606]},"properties":{"name_en":"Heraklion International Airport Nikos Kazantzakis"}},
{"type":"Feature","geometry":{"type":"Point","coordinates":[-1.5231207,43.4691926]},"properties":{"name_en":null}},
{"type":"Feature","geometry":{"type":"Point","coordinates":[2.1196855,49.4541454]},"properties":{"name_en":null}},
{"type":"Feature","geometry":{"type":"Point","coordinates":[5.3300082,45.3624009]},"properties":{"name_en":null}},
{"type":"Feature","geometry":{"type":"Point","coordinates":[8.7922257,42.5298965]},"properties":{"name_en":"Calvi – Sainte-Catherine Airport"}},
{"type":"Feature","geometry":{"type":"Point","coordinates":[9.0978591,41.5034306]},"properties":{"name_en":null}},
{"type":"Feature","geometry":{"type":"Point","coordinates":[37.0720298,-3.4284289]},"properties":{"name_en":null}},
{"type":"Feature","geometry":{"type":"Point","coordinates":[7.6261059,48.5388701]},"properties":{"name_en":"Strasbourg-Entzheim Airport"}},
{"type":"Feature","geometry":{"type":"Point","coordinates":[1.182349,45.8629641]},"properties":{"name_en":null}},
{"type":"Feature","geometry":{"type":"Point","coordinates":[39.1731745,45.0337393]},"properties":{"name_en":"Krasnodar International Airport"}},
{"type":"Feature","geometry":{"type":"Point","coordinates":[9.5186505,40.8993345]},"properties":{"name_en":"Olbia Costa Smeralda International Airport"}},
{"type":"Feature","geometry":{"type":"Point","coordinates":[9.0559868,39.2505927]},"properties":{"name_en":"Cagliari-Elmas Airport"}},
{"type":"Feature","geometry":{"type":"Point","coordinates":[-2.7186615,51.3830799]},"properties":{"name_en":null}},
{"type":"Feature","geometry":{"type":"Point","coordinates":[106.6576019,-6.1238896]},"properties":{"name_en":"Soekarno-Hatta International Airport"}},
{"type":"Feature","geometry":{"type":"Point","coordinates":[-72.2932731,18.5790018]},"properties":{"name_en":"Toussaint Louverture International Airport"}},
{"type":"Feature","geometry":{"type":"Point","coordinates":[-1.6925163,55.0385826]},"properties":{"name_en":"Newcastle International Airport"}},
{"type":"Feature","geometry":{"type":"Point","coordinates":[168.3181493,-17.6989896]},"properties":{"name_en":null}},
{"type":"Feature","geometry":{"type":"Point","coordinates":[18.4729239,54.3761659]},"properties":{"name_en":"Gdansk Lech Walesa Airport"}},
{"type":"Feature","geometry":{"type":"Point","coordinates":[12.5093467,43.0983294]},"properties":{"name_en":"Perugia San Francesco d'Assisi – Umbria International Airport"}},
{"type":"Feature","geometry":{"type":"Point","coordinates":[-81.3586806,19.2926102]},"properties":{"name_en":null}},
{"type":"Feature","geometry":{"type":"Point","coordinates":[4.4593201,50.463645]},"properties":{"name_en":"Brussels South Charleroi Airport"}},
{"type":"Feature","geometry":{"type":"Point","coordinates":[18.6039556,-33.9717067]},"properties":{"name_en":"Cape Town International Airport"}},
{"type":"Feature","geometry":{"type":"Point","coordinates":[13.3624959,43.6172317]},"properties":{"name_en":"Ancona Airport"}},
{"type":"Feature","geometry":{"type":"Point","coordinates":[22.7165883,51.2385637]},"properties":{"name_en":null}},
{"type":"Feature","geometry":{"type":"Point","coordinates":[61.5027976,55.3014857]},"properties":{"name_en":"Chelyabinsk International Airport named after Igor Kurchatov"}},
{"type":"Feature","geometry":{"type":"Point","coordinates":[50.1550063,53.5057532]},"properties":{"name_en":"Kurumoch International Airport"}},
{"type":"Feature","geometry":{"type":"Point","coordinates":[132.1464045,43.3927252]},"properties":{"name_en":"Vladivostok International Airport"}},
{"type":"Feature","geometry":{"type":"Point","coordinates":[40.156832,57.5604458]},"properties":{"name_en":"Tunoshna Airport"}},
{"type":"Feature","geometry":{"type":"Point","coordinates":[32.754071,68.7800036]},"properties":{"name_en":"Nicholas II Murmansk Airport"}},
{"type":"Feature","geometry":{"type":"Point","coordinates":[16.5592147,48.104576]},"properties":{"name_en":"Vienna International Airport"}},
{"type":"Feature","geometry":{"type":"Point","coordinates":[21.2398869,48.6612686]},"properties":{"name_en":"Košice International Airport"}},
{"type":"Feature","geometry":{"type":"Point","coordinates":[3.210146,36.7014303]},"properties":{"name_en":"Algiers International Houari Boumediene Airport"}},
{"type":"Feature","geometry":{"type":"Point","coordinates":[17.9451824,59.6467358]},"properties":{"name_en":"Stockholm-Arlanda Airport"}},
{"type":"Feature","geometry":{"type":"Point","coordinates":[26.1033412,44.5002887]},"properties":{"name_en":"Aurel Vlaicu International Airport"}},
{"type":"Feature","geometry":{"type":"Point","coordinates":[23.6835854,46.7861901]},"properties":{"name_en":"Cluj Avram Iancu International Airport"}},
{"type":"Feature","geometry":{"type":"Point","coordinates":[26.9120169,46.5190608]},"properties":{"name_en":"Bacău International Airport"}},
{"type":"Feature","geometry":{"type":"Point","coordinates":[35.2356004,0.4042525]},"properties":{"name_en":"Eldoret International Airport"}},
{"type":"Feature","geometry":{"type":"Point","coordinates":[16.2462289,38.9063033]},"properties":{"name_en":"Lamezia Terme International Airport"}},
{"type":"Feature","geometry":{"type":"Point","coordinates":[-76.3833298,3.5396585]},"properties":{"name_en":"Alfonso Bonilla Aragon International Airport"}},
{"type":"Feature","geometry":{"type":"Point","coordinates":[17.4691365,-22.4821493]},"properties":{"name_en":"Hosea Kutako International Airport"}},
{"type":"Feature","geometry":{"type":"Point","coordinates":[23.4178068,42.6954822]},"properties":{"name_en":"Sofia Airport"}},
{"type":"Feature","geometry":{"type":"Point","coordinates":[85.2109511,56.3829696]},"properties":{"name_en":"Tomsk Bogashevo Airport"}},
{"type":"Feature","geometry":{"type":"Point","coordinates":[33.9812821,45.0382968]},"properties":{"name_en":"Simferopol International Airport"}},
{"type":"Feature","geometry":{"type":"Point","coordinates":[37.477767,36.9482209]},"properties":{"name_en":"Oğuzeli Airport"}},
{"type":"Feature","geometry":{"type":"Point","coordinates":[121.5379963,38.9641247]},"properties":{"name_en":"Dalian Zhoushuizi International Airport"}},
{"type":"Feature","geometry":{"type":"Point","coordinates":[107.5760945,-6.8994955]},"properties":{"name_en":"Husein Sastranegara International Airport"}},
{"type":"Feature","geometry":{"type":"Point","coordinates":[10.7541158,35.758987]},"properties":{"name_en":"Monastir Habib Bourguiba Airport"}},
{"type":"Feature","geometry":{"type":"Point","coordinates":[-4.5948374,55.5022118]},"properties":{"name_en":"Glasgow Prestwick Airport"}},
{"type":"Feature","geometry":{"type":"Point","coordinates":[-75.5129096,10.4415103]},"properties":{"name_en":"Rafael Nuñez International Airport"}},
{"type":"Feature","geometry":{"type":"Point","coordinates":[20.2392135,49.0713037]},"properties":{"name_en":"Poprad-Tatry Airport"}},
{"type":"Feature","geometry":{"type":"Point","coordinates":[51.1502181,35.4173561]},"properties":{"name_en":"Imam Khomeini International Airport"}},
{"type":"Feature","geometry":{"type":"Point","coordinates":[-1.3516684,50.9513872]},"properties":{"name_en":null}},
{"type":"Feature","geometry":{"type":"Point","coordinates":[-1.0054086,53.4761577]},"properties":{"name_en":"Doncaster Sheffield Airport"}},
{"type":"Feature","geometry":{"type":"Point","coordinates":[31.7315022,26.3416929]},"properties":{"name_en":"Suhag International Airport"}},
{"type":"Feature","geometry":{"type":"Point","coordinates":[13.1451859,32.6686796]},"properties":{"name_en":"Tripoli International Airport"}},
{"type":"Feature","geometry":{"type":"Point","coordinates":[32.2974774,36.2989195]},"properties":{"name_en":"Gazipaşa-Alanya Airport"}},
{"type":"Feature","geometry":{"type":"Point","coordinates":[166.9191656,-0.5472553]},"properties":{"name_en":"Nauru International Airport"}},
{"type":"Feature","geometry":{"type":"Point","coordinates":[-75.2444691,39.8748446]},"properties":{"name_en":null}},
{"type":"Feature","geometry":{"type":"Point","coordinates":[-55.1041532,-34.8548787]},"properties":{"name_en":null}},
{"type":"Feature","geometry":{"type":"Point","coordinates":[-2.8518179,53.3357677]},"properties":{"name_en":null}},
{"type":"Feature","geometry":{"type":"Point","coordinates":[85.3591384,27.693734]},"properties":{"name_en":"Tribhuvan International Airport"}},
{"type":"Feature","geometry":{"type":"Point","coordinates":[-57.0373094,-29.7828941]},"properties":{"name_en":"Ruben Berta International Airport"}},
{"type":"Feature","geometry":{"type":"Point","coordinates":[-8.0358986,31.6056798]},"properties":{"name_en":"Marrakech Menara Airport"}},
{"type":"Feature","geometry":{"type":"Point","coordinates":[-7.5821439,33.3692601]},"properties":{"name_en":"Mohammed V Airport"}},
{"type":"Feature","geometry":{"type":"Point","coordinates":[8.7871062,53.0453445]},"properties":{"name_en":"Bremen Airport"}},
{"type":"Feature","geometry":{"type":"Point","coordinates":[-16.7743861,32.6981266]},"properties":{"name_en":"Cristiano Ronaldo Airport"}},
{"type":"Feature","geometry":{"type":"Point","coordinates":[20.2839168,63.7904028]},"properties":{"name_en":"Umeå Airport"}},
{"type":"Feature","geometry":{"type":"Point","coordinates":[21.613949,47.4887994]},"properties":{"name_en":"Debrecen International Airport"}},
{"type":"Feature","geometry":{"type":"Point","coordinates":[4.44072,51.9556978]},"properties":{"name_en":null}},
{"type":"Feature","geometry":{"type":"Point","coordinates":[-172.0079485,-13.8307683]},"properties":{"name_en":"Faleolo International Airport"}},
{"type":"Feature","geometry":{"type":"Point","coordinates":[-156.0394319,19.7417658]},"properties":{"name_en":"Ellison Onizuka Kona International Airport at Keahole"}},
{"type":"Feature","geometry":{"type":"Point","coordinates":[-5.3196187,35.5939004]},"properties":{"name_en":"Tetouan Saniet R'mel Airport"}},
{"type":"Feature","geometry":{"type":"Point","coordinates":[129.5692026,44.5256453]},"properties":{"name_en":"Mudanjiang Hailang International Airport"}},
{"type":"Feature","geometry":{"type":"Point","coordinates":[-79.6285275,43.6777176]},"properties":{"name_en":null}},
{"type":"Feature","geometry":{"type":"Point","coordinates":[115.9071277,28.8618452]},"properties":{"name_en":"Nanchang Changbei International Airport"}},
{"type":"Feature","geometry":{"type":"Point","coordinates":[19.250099,42.3595629]},"properties":{"name_en":"Podgorica Airport"}},
{"type":"Feature","geometry":{"type":"Point","coordinates":[48.7616218,31.33775]},"properties":{"name_en":"General Soleimani International Airport"}},
{"type":"Feature","geometry":{"type":"Point","coordinates":[-1.125496,37.8032803]},"properties":{"name_en":"Region of Murcia International Airport"}},
{"type":"Feature","geometry":{"type":"Point","coordinates":[66.9375407,30.2526084]},"properties":{"name_en":"Quetta International Airport"}},
{"type":"Feature","geometry":{"type":"Point","coordinates":[13.9226567,44.8955519]},"properties":{"name_en":"Pula Airport"}},
{"type":"Feature","geometry":{"type":"Point","coordinates":[19.1343088,48.6372779]},"properties":{"name_en":"Sliač"}},
{"type":"Feature","geometry":{"type":"Point","coordinates":[50.0468884,40.4733019]},"properties":{"name_en":"Heydar Aliyev International Airport"}},
{"type":"Feature","geometry":{"type":"Point","coordinates":[-2.9150933,43.30173]},"properties":{"name_en":"Bilbao Airport"}},
{"type":"Feature","geometry":{"type":"Point","coordinates":[-3.8203888,43.4269511]},"properties":{"name_en":"Santander Airport"}},
{"type":"Feature","geometry":{"type":"Point","coordinates":[100.2816601,-0.787933]},"properties":{"name_en":"Minangkabau International Airport"}},
{"type":"Feature","geometry":{"type":"Point","coordinates":[45.2819681,-12.8091152]},"properties":{"name_en":"Marcel Henry International Airport"}},
{"type":"Feature","geometry":{"type":"Point","coordinates":[42.9805185,14.7559191]},"properties":{"name_en":"Hodeidah International Airport"}},
{"type":"Feature","geometry":{"type":"Point","coordinates":[-1.0488778,41.6675274]},"properties":{"name_en":"Zaragoza Airport"}},
{"type":"Feature","geometry":{"type":"Point","coordinates":[174.807752,-41.3268975]},"properties":{"name_en":null}},
{"type":"Feature","geometry":{"type":"Point","coordinates":[-74.2315824,11.1191863]},"properties":{"name_en":"Simón Bolívar International Airport"}},
{"type":"Feature","geometry":{"type":"Point","coordinates":[51.8753241,32.7612198]},"properties":{"name_en":"Isfahan International Airport"}},
{"type":"Feature","geometry":{"type":"Point","coordinates":[-79.5572852,8.9740975]},"properties":{"name_en":"Albrook \"Marcos A. Gelabert\" International Airport"}},
{"type":"Feature","geometry":{"type":"Point","coordinates":[112.6301576,37.7489338]},"properties":{"name_en":"Taiyuan Wusu International Airport"}},
{"type":"Feature","geometry":{"type":"Point","coordinates":[79.8843907,7.1796468]},"properties":{"name_en":"Bandaranaike International Airport"}},
{"type":"Feature","geometry":{"type":"Point","coordinates":[13.0822492,11.8562273]},"properties":{"name_en":null}},
{"type":"Feature","geometry":{"type":"Point","coordinates":[173.1472437,1.3816629]},"properties":{"name_en":null}},
{"type":"Feature","geometry":{"type":"Point","coordinates":[117.2112613,36.8573191]},"properties":{"name_en":"Jinan Yaoqiang International Airport(TNA)"}},
{"type":"Feature","geometry":{"type":"Point","coordinates":[25.8169788,-17.8183264]},"properties":{"name_en":null}},
{"type":"Feature","geometry":{"type":"Point","coordinates":[13.4970661,-9.0536608]},"properties":{"name_en":"Luanda International Airport"}},
{"type":"Feature","geometry":{"type":"Point","coordinates":[21.3379654,45.8098482]},"properties":{"name_en":"Timișoara Traian Vuia International Airport"}},
{"type":"Feature","geometry":{"type":"Point","coordinates":[-56.4971965,-33.360362]},"properties":{"name_en":"Santa Bernardina International Airport"}},
{"type":"Feature","geometry":{"type":"Point","coordinates":[96.1364181,16.9119972]},"properties":{"name_en":"Yangon International Airport"}},
{"type":"Feature","geometry":{"type":"Point","coordinates":[-72.6854789,41.9404554]},"properties":{"name_en":"Bradley International Airport"}},
{"type":"Feature","geometry":{"type":"Point","coordinates":[-90.3767946,38.7495724]},"properties":{"name_en":"St. Louis Lambert International Airport"}},
{"type":"Feature","geometry":{"type":"Point","coordinates":[-80.9463433,35.2110578]},"properties":{"name_en":null}},
{"type":"Feature","geometry":{"type":"Point","coordinates":[-117.1914072,32.7340065]},"properties":{"name_en":null}},
{"type":"Feature","geometry":{"type":"Point","coordinates":[-71.428095,41.7224437]},"properties":{"name_en":null}},
{"type":"Feature","geometry":{"type":"Point","coordinates":[18.2659334,42.5614853]},"properties":{"name_en":"Dubrovnik airport"}},
{"type":"Feature","geometry":{"type":"Point","coordinates":[151.1785197,-33.9499853]},"properties":{"name_en":"Sydney (Kingsford Smith) Airport"}},
{"type":"Feature","geometry":{"type":"Point","coordinates":[28.622824,-20.0132741]},"properties":{"name_en":null}},
{"type":"Feature","geometry":{"type":"Point","coordinates":[-78.3553608,-0.1274352]},"properties":{"name_en":"Mariscal Sucre International Airport"}},
{"type":"Feature","geometry":{"type":"Point","coordinates":[-79.8842529,-2.1578045]},"properties":{"name_en":"José Joaquín de Olmedo International Airport"}},
{"type":"Feature","geometry":{"type":"Point","coordinates":[134.5434645,7.3668547]},"properties":{"name_en":null}},
{"type":"Feature","geometry":{"type":"Point","coordinates":[-157.9573188,21.3321102]},"properties":{"name_en":null}},
{"type":"Feature","geometry":{"type":"Point","coordinates":[-86.8759453,21.0407385]},"properties":{"name_en":"Cancún International Airport"}},
{"type":"Feature","geometry":{"type":"Point","coordinates":[33.7913944,27.1800158]},"properties":{"name_en":"Hurghada International Airport"}},
{"type":"Feature","geometry":{"type":"Point","coordinates":[-76.1998765,36.894653]},"properties":{"name_en":"Norfolk International Airport"}},
{"type":"Feature","geometry":{"type":"Point","coordinates":[-95.886731,36.2015573]},"properties":{"name_en":null}},
{"type":"Feature","geometry":{"type":"Point","coordinates":[-159.3435362,21.9720241]},"properties":{"name_en":"Līhu‘e Airport"}},
{"type":"Feature","geometry":{"type":"Point","coordinates":[-76.4882301,37.1319968]},"properties":{"name_en":null}},
{"type":"Feature","geometry":{"type":"Point","coordinates":[-147.8583073,64.8147123]},"properties":{"name_en":null}},
{"type":"Feature","geometry":{"type":"Point","coordinates":[-95.3270875,29.9840902]},"properties":{"name_en":"George Bush Intercontinental Airport - Houston"}},
{"type":"Feature","geometry":{"type":"Point","coordinates":[-106.701166,52.1728858]},"properties":{"name_en":null}},
{"type":"Feature","geometry":{"type":"Point","coordinates":[-15.9466663,18.0959673]},"properties":{"name_en":"Old Nouakchott International Airport"}},
{"type":"Feature","geometry":{"type":"Point","coordinates":[46.1694782,51.7139667]},"properties":{"name_en":null}},
{"type":"Feature","geometry":{"type":"Point","coordinates":[114.2170047,30.775834]},"properties":{"name_en":"Wuhan Tianhe International Airport"}},
{"type":"Feature","geometry":{"type":"Point","coordinates":[33.7807729,-13.7887828]},"properties":{"name_en":null}},
{"type":"Feature","geometry":{"type":"Point","coordinates":[119.7176387,32.5607087]},"properties":{"name_en":"Yangzhou Taizhou Airport"}},
{"type":"Feature","geometry":{"type":"Point","coordinates":[83.4138592,27.5051198]},"properties":{"name_en":null}},
{"type":"Feature","geometry":{"type":"Point","coordinates":[-62.7182071,17.3113247]},"properties":{"name_en":null}},
{"type":"Feature","geometry":{"type":"Point","coordinates":[113.3041906,23.392034]},"properties":{"name_en":"Guangzhou Baiyun International Airport"}},
{"type":"Feature","geometry":{"type":"Point","coordinates":[-72.0354869,7.5659622]},"properties":{"name_en":"Santo Domingo International Airport"}},
{"type":"Feature","geometry":{"type":"Point","coordinates":[18.8145777,45.4618948]},"properties":{"name_en":"Osijek Airport"}},
{"type":"Feature","geometry":{"type":"Point","coordinates":[24.150736,35.5300399]},"properties":{"name_en":"Chania International Airport \"Ioannis Daskalogiannis\""}},
{"type":"Feature","geometry":{"type":"Point","coordinates":[-56.0262319,-34.8315724]},"properties":{"name_en":null}},
{"type":"Feature","geometry":{"type":"Point","coordinates":[33.828113,31.057676]},"properties":{"name_en":"El Arish International Airport"}},
{"type":"Feature","geometry":{"type":"Point","coordinates":[-82.4120428,22.9877941]},"properties":{"name_en":"José Martí International Airport"}},
{"type":"Feature","geometry":{"type":"Point","coordinates":[34.3906262,27.9795232]},"properties":{"name_en":"Sharm El Sheikh International Airport"}},
{"type":"Feature","geometry":{"type":"Point","coordinates":[-68.3670564,18.5698229]},"properties":{"name_en":"Punta Cana International Airport"}},
{"type":"Feature","geometry":{"type":"Point","coordinates":[10.3270495,55.4754323]},"properties":{"name_en":null}},
{"type":"Feature","geometry":{"type":"Point","coordinates":[22.2633365,60.5134301]},"properties":{"name_en":"Turku Airport"}},
{"type":"Feature","geometry":{"type":"Point","coordinates":[27.9254685,-25.9397428]},"properties":{"name_en":null}},
{"type":"Feature","geometry":{"type":"Point","coordinates":[8.7072882,3.7564526]},"properties":{"name_en":"Malabo International Airport"}},
{"type":"Feature","geometry":{"type":"Point","coordinates":[-70.5696881,19.7575226]},"properties":{"name_en":"Gregorio Luperón International Airport"}},
{"type":"Feature","geometry":{"type":"Point","coordinates":[52.1719211,16.1857816]},"properties":{"name_en":"Al Ghaidah International Airport"}},
{"type":"Feature","geometry":{"type":"Point","coordinates":[-79.1091813,-8.0823062]},"properties":{"name_en":"Capitan FAP Carlos Martinez De Pinillos International Airport"}},
{"type":"Feature","geometry":{"type":"Point","coordinates":[2.5625635,49.0068962]},"properties":{"name_en":"Charles de Gaulle International Airport"}},
{"type":"Feature","geometry":{"type":"Point","coordinates":[8.8430266,44.4129892]},"properties":{"name_en":"Genoa Airport - Cristoforo Colombo"}},
{"type":"Feature","geometry":{"type":"Point","coordinates":[172.5363067,-43.4849698]},"properties":{"name_en":null}},
{"type":"Feature","geometry":{"type":"Point","coordinates":[126.4393792,37.463783]},"properties":{"name_en":"Incheon International Airport"}},
{"type":"Feature","geometry":{"type":"Point","coordinates":[7.6511536,45.2005858]},"properties":{"name_en":"Turin Airport"}},
{"type":"Feature","geometry":{"type":"Point","coordinates":[-73.0953738,-41.4436847]},"properties":{"name_en":"El Tepual Airport"}},
{"type":"Feature","geometry":{"type":"Point","coordinates":[29.4581358,-23.8449656]},"properties":{"name_en":null}},
{"type":"Feature","geometry":{"type":"Point","coordinates":[-0.7155108,44.8293733]},"properties":{"name_en":null}},
{"type":"Feature","geometry":{"type":"Point","coordinates":[14.902048,53.5842715]},"properties":{"name_en":"Szczecin-Goleniów \"Solidarność\" Airport"}},
{"type":"Feature","geometry":{"type":"Point","coordinates":[-9.1360051,38.78101]},"properties":{"name_en":"Lisbon Airport"}},
{"type":"Feature","geometry":{"type":"Point","coordinates":[113.2213177,28.1907554]},"properties":{"name_en":"Changsha Huanghua International Airport"}},
{"type":"Feature","geometry":{"type":"Point","coordinates":[22.1599202,-10.7013828]},"properties":{"name_en":"Luau Airport"}},
{"type":"Feature","geometry":{"type":"Point","coordinates":[-8.9244669,52.7000391]},"properties":{"name_en":"Shannon Airport"}},
{"type":"Feature","geometry":{"type":"Point","coordinates":[7.813816,36.8305037]},"properties":{"name_en":"Annaba Rabah Bitat Airport"}},
{"type":"Feature","geometry":{"type":"Point","coordinates":[-1.6103832,47.1519005]},"properties":{"name_en":"Nantes Atlantique Airport"}},
{"type":"Feature","geometry":{"type":"Point","coordinates":[4.4858042,50.9009305]},"properties":{"name_en":"Brussels Airport"}},
{"type":"Feature","geometry":{"type":"Point","coordinates":[3.3199894,6.5740293]},"properties":{"name_en":"Murtala Mohammed International Airport"}},
{"type":"Feature","geometry":{"type":"Point","coordinates":[-109.4221474,-27.1646585]},"properties":{"name_en":"Mataveri International Airport"}},
{"type":"Feature","geometry":{"type":"Point","coordinates":[28.7408896,50.1598144]},"properties":{"name_en":"Ozerne International"}},
{"type":"Feature","geometry":{"type":"Point","coordinates":[-1.84232,50.7825186]},"properties":{"name_en":null}},
{"type":"Feature","geometry":{"type":"Point","coordinates":[120.9789013,37.6602663]},"properties":{"name_en":"Yantai Penglai International Airport"}},
{"type":"Feature","geometry":{"type":"Point","coordinates":[-3.3614651,55.9500825]},"properties":{"name_en":"Edinburgh Airport"}},
{"type":"Feature","geometry":{"type":"Point","coordinates":[19.3934965,51.720959]},"properties":{"name_en":null}},
{"type":"Feature","geometry":{"type":"Point","coordinates":[27.0907372,36.7954909]},"properties":{"name_en":"Kos Island International Airport"}},
{"type":"Feature","geometry":{"type":"Point","coordinates":[31.5991694,4.8735803]},"properties":{"name_en":null}},
{"type":"Feature","geometry":{"type":"Point","coordinates":[-71.3878691,46.7921863]},"properties":{"name_en":"Québec City Jean Lesage International Airport"}},
{"type":"Feature","geometry":{"type":"Point","coordinates":[46.708741,24.9562792]},"properties":{"name_en":"King Khalid International Airport"}},
{"type":"Feature","geometry":{"type":"Point","coordinates":[18.3293661,43.8253629]},"properties":{"name_en":"Sarajevo International Airport"}},
{"type":"Feature","geometry":{"type":"Point","coordinates":[38.7989876,8.9793279]},"properties":{"name_en":"Addis Ababa Bole International Airport"}},
{"type":"Feature","geometry":{"type":"Point","coordinates":[102.938273,25.1081021]},"properties":{"name_en":"Kunming Changshui Airport"}},
{"type":"Feature","geometry":{"type":"Point","coordinates":[-7.2761568,62.0640191]},"properties":{"name_en":null}},
{"type":"Feature","geometry":{"type":"Point","coordinates":[11.786025,48.3537238]},"properties":{"name_en":"Munich International Airport"}},
{"type":"Feature","geometry":{"type":"Point","coordinates":[7.6130437,51.5169351]},"properties":{"name_en":"Dortmund Airport"}},
{"type":"Feature","geometry":{"type":"Point","coordinates":[11.0235787,1.6824043]},"properties":{"name_en":"President Obiang Nguema International Airport"}},
{"type":"Feature","geometry":{"type":"Point","coordinates":[-59.4889152,5.1773857]},"properties":{"name_en":null}},
{"type":"Feature","geometry":{"type":"Point","coordinates":[9.7465943,10.4819907]},"properties":{"name_en":"Sir Abubakar Tafawa Balewa International Airport"}},
{"type":"Feature","geometry":{"type":"Point","coordinates":[6.2477144,48.9793426]},"properties":{"name_en":null}},
{"type":"Feature","geometry":{"type":"Point","coordinates":[166.2139406,-22.0148982]},"properties":{"name_en":"Noumea - La Tontouta International Airport"}},
{"type":"Feature","geometry":{"type":"Point","coordinates":[-122.3789591,37.6217472]},"properties":{"name_en":"San Francisco International Airport"}},
{"type":"Feature","geometry":{"type":"Point","coordinates":[120.4303868,31.4987509]},"properties":{"name_en":"Sunan Shuofang International Airport"}},
{"type":"Feature","geometry":{"type":"Point","coordinates":[-18.0709569,65.6564893]},"properties":{"name_en":"Akureyri Airport"}},
{"type":"Feature","geometry":{"type":"Point","coordinates":[-63.1538504,9.7497503]},"properties":{"name_en":"José Tadeo Monagas International Airport"}},
{"type":"Feature","geometry":{"type":"Point","coordinates":[-15.3870765,27.9285991]},"properties":{"name_en":"Gran Canaria Airport"}},
{"type":"Feature","geometry":{"type":"Point","coordinates":[99.8817597,19.9506465]},"properties":{"name_en":"Chiangrai International Airport"}},
{"type":"Feature","geometry":{"type":"Point","coordinates":[37.23508,19.4345239]},"properties":{"name_en":"Port Sudan International Airport"}},
{"type":"Feature","geometry":{"type":"Point","coordinates":[27.7786557,47.8413654]},"properties":{"name_en":"Bălți International Airport"}},
{"type":"Feature","geometry":{"type":"Point","coordinates":[-121.9281466,37.3632145]},"properties":{"name_en":"Norman Y. Mineta San José International Airport"}},
{"type":"Feature","geometry":{"type":"Point","coordinates":[-118.4088287,33.9421514]},"properties":{"name_en":null}},
{"type":"Feature","geometry":{"type":"Point","coordinates":[124.2817412,40.0262182]},"properties":{"name_en":"Dandong Langtou Airport"}},
{"type":"Feature","geometry":{"type":"Point","coordinates":[-3.8410855,35.1770627]},"properties":{"name_en":"Cherif Al Idrissi Airport"}},
{"type":"Feature","geometry":{"type":"Point","coordinates":[9.8682812,57.0858829]},"properties":{"name_en":"Aalborg Airport"}},
{"type":"Feature","geometry":{"type":"Point","coordinates":[45.3039787,2.0140327]},"properties":{"name_en":"Mogadishu Aden Adde International Airport"}},
{"type":"Feature","geometry":{"type":"Point","coordinates":[114.7637777,-3.440458]},"properties":{"name_en":"Syamsudin Noor International Airport"}},
{"type":"Feature","geometry":{"type":"Point","coordinates":[117.2519222,-0.3743961]},"properties":{"name_en":"APT Pranoto International Airport"}},
{"type":"Feature","geometry":{"type":"Point","coordinates":[117.5637551,3.326848]},"properties":{"name_en":"Juwata Airport"}},
{"type":"Feature","geometry":{"type":"Point","coordinates":[-79.9974706,-3.4423874]},"properties":{"name_en":"Santa Rosa International Airport"}},
{"type":"Feature","geometry":{"type":"Point","coordinates":[-70.1456157,11.7770592]},"properties":{"name_en":"Josefa Camejo International Airport"}},
{"type":"Feature","geometry":{"type":"Point","coordinates":[44.404913,31.9892677]},"properties":{"name_en":"Al Najaf International Airport"}},
{"type":"Feature","geometry":{"type":"Point","coordinates":[-77.9119618,18.5029469]},"properties":{"name_en":"Sangster International Airport"}},
{"type":"Feature","geometry":{"type":"Point","coordinates":[-1.9324575,34.7963078]},"properties":{"name_en":"Oujda Angad Airport"}},
{"type":"Feature","geometry":{"type":"Point","coordinates":[-3.0291548,34.988333]},"properties":{"name_en":"Nador Al Aroui Airport"}},
{"type":"Feature","geometry":{"type":"Point","coordinates":[-79.9447936,22.4883524]},"properties":{"name_en":"Abel Santamaría International Airport"}},
{"type":"Feature","geometry":{"type":"Point","coordinates":[125.5246432,-8.5475989]},"properties":{"name_en":"Presidente Nicolau Lobato International Airport"}},
{"type":"Feature","geometry":{"type":"Point","coordinates":[-157.3498335,1.9844609]},"properties":{"name_en":"Cassidy International Airport"}},
{"type":"Feature","geometry":{"type":"Point","coordinates":[10.2403952,47.9893479]},"properties":{"name_en":"Memmingen Airport"}},
{"type":"Feature","geometry":{"type":"Point","coordinates":[5.2077396,12.9175025]},"properties":{"name_en":null}},
{"type":"Feature","geometry":{"type":"Point","coordinates":[4.3696699,12.479526]},"properties":{"name_en":null}},
{"type":"Feature","geometry":{"type":"Point","coordinates":[18.7237692,44.4625374]},"properties":{"name_en":"Tuzla International Airport"}},
{"type":"Feature","geometry":{"type":"Point","coordinates":[4.4933734,8.4395918]},"properties":{"name_en":"Ilorin International Airport"}},
{"type":"Feature","geometry":{"type":"Point","coordinates":[-57.9865285,-31.4390185]},"properties":{"name_en":"Nueva Hesperides International Airport"}},
{"type":"Feature","geometry":{"type":"Point","coordinates":[-55.4772575,-30.9747991]},"properties":{"name_en":"Presidente General Don Oscar D. Gestido International Airport"}},
{"type":"Feature","geometry":{"type":"Point","coordinates":[28.7330101,41.2752535]},"properties":{"name_en":"Istanbul Airport"}},
{"type":"Feature","geometry":{"type":"Point","coordinates":[16.6931024,49.1524737]},"properties":{"name_en":null}},
{"type":"Feature","geometry":{"type":"Point","coordinates":[28.0863925,36.4051137]},"properties":{"name_en":"Rhodes International Airport, \"Diagoras\""}},
{"type":"Feature","geometry":{"type":"Point","coordinates":[22.9690156,40.5199688]},"properties":{"name_en":"Thessaloniki International Airport \"Macedonia\""}},
{"type":"Feature","geometry":{"type":"Point","coordinates":[-73.7464826,45.4686868]},"properties":{"name_en":"Montréal–Pierre Elliott Trudeau International Airport"}},
{"type":"Feature","geometry":{"type":"Point","coordinates":[-69.9415846,-4.1905233]},"properties":{"name_en":null}},
{"type":"Feature","geometry":{"type":"Point","coordinates":[21.7585992,63.0520258]},"properties":{"name_en":"Vaasa Airport"}},
{"type":"Feature","geometry":{"type":"Point","coordinates":[16.9051683,58.7925556]},"properties":{"name_en":"Stockholm-Skavsta Airport"}}
]}